{
"type": "FeatureCollection",
"name": "kawasan_strategis",
"crs": { "type": "name", "properties": { "name": "urn:ogc:def:crs:OGC:1.3:CRS84" } },
"features": [
{ "type": "Feature", "properties": { "NAMOBJ": "Pertumbuhan Ekonomi", "WADMPR": "Provinsi Jawa Barat", "WADMKK": "Kota Cimahi", "SDTPTG": 1, "REMARK": "Kawasan Industri", "SBDATA": "Analisis RTRW Kota Cimahi Perda No 4 Tahun 2012 - 2032", "SHAPE_Length": 0.090240254572848011, "SHAPE_Area": 0.00034819847856254482 }, "geometry": { "type": "MultiPolygon", "coordinates": [ [ [ [ 107.551665, -6.916861, 0.0 ], [ 107.551242, -6.91973, 0.0 ], [ 107.551152, -6.920518, 0.0 ], [ 107.550956, -6.921285, 0.0 ], [ 107.549833, -6.921792, 0.0 ], [ 107.549698, -6.922222, 0.0 ], [ 107.549496, -6.922329, 0.0 ], [ 107.549115, -6.922406, 0.0 ], [ 107.548911, -6.922548, 0.0 ], [ 107.548734, -6.922901, 0.0 ], [ 107.548717, -6.922954, 0.0 ], [ 107.548647, -6.923177, 0.0 ], [ 107.548514, -6.923612, 0.0 ], [ 107.54843, -6.923886, 0.0 ], [ 107.548351, -6.923957, 0.0 ], [ 107.548298, -6.923907, 0.0 ], [ 107.548226, -6.92388, 0.0 ], [ 107.548052, -6.923774, 0.0 ], [ 107.547906, -6.923695, 0.0 ], [ 107.547567, -6.923519, 0.0 ], [ 107.547116, -6.923316, 0.0 ], [ 107.546836, -6.923193, 0.0 ], [ 107.546429, -6.923092, 0.0 ], [ 107.545912, -6.922885, 0.0 ], [ 107.545419, -6.922629, 0.0 ], [ 107.544968, -6.922423, 0.0 ], [ 107.544746, -6.922378, 0.0 ], [ 107.544689, -6.922376, 0.0 ], [ 107.544594, -6.922378, 0.0 ], [ 107.544489, -6.92239, 0.0 ], [ 107.54447, -6.922314, 0.0 ], [ 107.54438, -6.921951, 0.0 ], [ 107.54423, -6.921342, 0.0 ], [ 107.544228, -6.921327, 0.0 ], [ 107.544226, -6.921315, 0.0 ], [ 107.544191, -6.921091, 0.0 ], [ 107.544188, -6.921069, 0.0 ], [ 107.544168, -6.920941, 0.0 ], [ 107.544104, -6.920533, 0.0 ], [ 107.544054, -6.920215, 0.0 ], [ 107.544051, -6.920191, 0.0 ], [ 107.544023, -6.920016, 0.0 ], [ 107.544003, -6.919889, 0.0 ], [ 107.543962, -6.919675, 0.0 ], [ 107.543947, -6.919597, 0.0 ], [ 107.543907, -6.919392, 0.0 ], [ 107.543905, -6.919384, 0.0 ], [ 107.543838, -6.919371, 0.0 ], [ 107.543491, -6.919303, 0.0 ], [ 107.543473, -6.919299, 0.0 ], [ 107.543044, -6.919199, 0.0 ], [ 107.542529, -6.919093, 0.0 ], [ 107.54255, -6.918981, 0.0 ], [ 107.542576, -6.918847, 0.0 ], [ 107.542326, -6.918801, 0.0 ], [ 107.542119, -6.918786, 0.0 ], [ 107.541374, -6.918721, 0.0 ], [ 107.541074, -6.918695, 0.0 ], [ 107.540733, -6.91866, 0.0 ], [ 107.540679, -6.918649, 0.0 ], [ 107.540482, -6.91861, 0.0 ], [ 107.540356, -6.918583, 0.0 ], [ 107.540287, -6.918573, 0.0 ], [ 107.540262, -6.91857, 0.0 ], [ 107.540258, -6.918569, 0.0 ], [ 107.54025, -6.918568, 0.0 ], [ 107.54019, -6.918561, 0.0 ], [ 107.540181, -6.91856, 0.0 ], [ 107.540167, -6.918606, 0.0 ], [ 107.540154, -6.918647, 0.0 ], [ 107.54015, -6.918656, 0.0 ], [ 107.540102, -6.918777, 0.0 ], [ 107.540053, -6.918815, 0.0 ], [ 107.539268, -6.918606, 0.0 ], [ 107.539269, -6.918604, 0.0 ], [ 107.539312, -6.918427, 0.0 ], [ 107.539418, -6.918022, 0.0 ], [ 107.539422, -6.918009, 0.0 ], [ 107.539045, -6.917905, 0.0 ], [ 107.53878, -6.917836, 0.0 ], [ 107.538595, -6.917787, 0.0 ], [ 107.538434, -6.917745, 0.0 ], [ 107.538169, -6.917652, 0.0 ], [ 107.538141, -6.917642, 0.0 ], [ 107.538081, -6.917623, 0.0 ], [ 107.537941, -6.917591, 0.0 ], [ 107.537935, -6.917623, 0.0 ], [ 107.537762, -6.917587, 0.0 ], [ 107.537694, -6.91757, 0.0 ], [ 107.537651, -6.91756, 0.0 ], [ 107.537615, -6.917552, 0.0 ], [ 107.53756, -6.917539, 0.0 ], [ 107.537504, -6.917545, 0.0 ], [ 107.537496, -6.917544, 0.0 ], [ 107.537481, -6.917542, 0.0 ], [ 107.537466, -6.917551, 0.0 ], [ 107.537465, -6.917552, 0.0 ], [ 107.53745, -6.917457, 0.0 ], [ 107.537366, -6.917125, 0.0 ], [ 107.542184, -6.912924, 0.0 ], [ 107.542097, -6.91275, 0.0 ], [ 107.541878, -6.912284, 0.0 ], [ 107.5414, -6.911576, 0.0 ], [ 107.54101, -6.911188, 0.0 ], [ 107.540614, -6.910699, 0.0 ], [ 107.54032, -6.910399, 0.0 ], [ 107.539451, -6.909593, 0.0 ], [ 107.538848, -6.908963, 0.0 ], [ 107.538394, -6.90836, 0.0 ], [ 107.540981, -6.902517, 0.0 ], [ 107.544581, -6.901285, 0.0 ], [ 107.54476, -6.901223, 0.0 ], [ 107.545484, -6.900997, 0.0 ], [ 107.546335, -6.900731, 0.0 ], [ 107.547114, -6.900485, 0.0 ], [ 107.547105, -6.900361, 0.0 ], [ 107.547095, -6.900225, 0.0 ], [ 107.547086, -6.89988, 0.0 ], [ 107.547103, -6.899768, 0.0 ], [ 107.547158, -6.899493, 0.0 ], [ 107.54726, -6.898988, 0.0 ], [ 107.547286, -6.898783, 0.0 ], [ 107.547258, -6.898701, 0.0 ], [ 107.547224, -6.898606, 0.0 ], [ 107.547212, -6.898571, 0.0 ], [ 107.547204, -6.898548, 0.0 ], [ 107.547166, -6.898493, 0.0 ], [ 107.547056, -6.898334, 0.0 ], [ 107.546975, -6.898214, 0.0 ], [ 107.547389, -6.896015, 0.0 ], [ 107.547504, -6.895518, 0.0 ], [ 107.547633, -6.89496, 0.0 ], [ 107.548147, -6.894206, 0.0 ], [ 107.555715, -6.896445, 0.0 ], [ 107.555594, -6.897374, 0.0 ], [ 107.555941, -6.898055, 0.0 ], [ 107.557342, -6.898653, 0.0 ], [ 107.558007, -6.898917, 0.0 ], [ 107.558288, -6.89895, 0.0 ], [ 107.56002, -6.89915, 0.0 ], [ 107.558663, -6.901146, 0.0 ], [ 107.558893, -6.903198, 0.0 ], [ 107.557098, -6.904841, 0.0 ], [ 107.55642, -6.907513, 0.0 ], [ 107.555301, -6.909587, 0.0 ], [ 107.553593, -6.911811, 0.0 ], [ 107.55287, -6.912424, 0.0 ], [ 107.552483, -6.913267, 0.0 ], [ 107.552074, -6.91409, 0.0 ], [ 107.551665, -6.916861, 0.0 ] ] ] ] } },
{ "type": "Feature", "properties": { "NAMOBJ": "Pertumbuhan Ekonomi", "WADMPR": "Provinsi Jawa Barat", "WADMKK": "Kota Cimahi", "SDTPTG": 1, "REMARK": "Kawasan perdagangan dan jasa Pusat Kota Baru Baros", "SBDATA": "Analisis RTRW Kota Cimahi Perda No 4 Tahun 2012 - 2032", "SHAPE_Length": 0.040404167141869764, "SHAPE_Area": 6.6562267808145076e-05 }, "geometry": { "type": "MultiPolygon", "coordinates": [ [ [ [ 107.54195, -6.893377, 0.0 ], [ 107.544462, -6.893837, 0.0 ], [ 107.544528, -6.893519, 0.0 ], [ 107.544618, -6.893279, 0.0 ], [ 107.544941, -6.892427, 0.0 ], [ 107.547855, -6.893675, 0.0 ], [ 107.547633, -6.89496, 0.0 ], [ 107.547504, -6.895518, 0.0 ], [ 107.547389, -6.896015, 0.0 ], [ 107.546975, -6.898214, 0.0 ], [ 107.547056, -6.898334, 0.0 ], [ 107.547166, -6.898493, 0.0 ], [ 107.547204, -6.898548, 0.0 ], [ 107.547212, -6.898571, 0.0 ], [ 107.547224, -6.898606, 0.0 ], [ 107.547258, -6.898701, 0.0 ], [ 107.547286, -6.898783, 0.0 ], [ 107.54726, -6.898988, 0.0 ], [ 107.547158, -6.899493, 0.0 ], [ 107.547103, -6.899768, 0.0 ], [ 107.547086, -6.89988, 0.0 ], [ 107.547095, -6.900225, 0.0 ], [ 107.547105, -6.900361, 0.0 ], [ 107.547114, -6.900485, 0.0 ], [ 107.546335, -6.900731, 0.0 ], [ 107.545484, -6.900997, 0.0 ], [ 107.54476, -6.901223, 0.0 ], [ 107.544713, -6.90115, 0.0 ], [ 107.544487, -6.900983, 0.0 ], [ 107.543761, -6.899335, 0.0 ], [ 107.543557, -6.898873, 0.0 ], [ 107.5433, -6.898302, 0.0 ], [ 107.543056, -6.897739, 0.0 ], [ 107.542767, -6.897901, 0.0 ], [ 107.540707, -6.898517, 0.0 ], [ 107.539174, -6.898844, 0.0 ], [ 107.538656, -6.898955, 0.0 ], [ 107.536495, -6.899347, 0.0 ], [ 107.536509, -6.898796, 0.0 ], [ 107.536533, -6.897884, 0.0 ], [ 107.536598, -6.895381, 0.0 ], [ 107.537271, -6.895452, 0.0 ], [ 107.537754, -6.895001, 0.0 ], [ 107.538086, -6.894322, 0.0 ], [ 107.538051, -6.894133, 0.0 ], [ 107.537676, -6.892093, 0.0 ], [ 107.53851, -6.89209, 0.0 ], [ 107.539741, -6.892079, 0.0 ], [ 107.540618, -6.892269, 0.0 ], [ 107.541397, -6.89279, 0.0 ], [ 107.54195, -6.893377, 0.0 ] ] ] ] } },
{ "type": "Feature", "properties": { "NAMOBJ": "Fungsi dan Daya Dukung Lingkungan Hidup", "WADMPR": "Provinsi Jawa Barat", "WADMKK": "Kota Cimahi", "SDTPTG": 4, "REMARK": "Kawasan Hijau Padakasih Cireundeu", "SBDATA": "Analisis RTRW Kota Cimahi Perda No 4 Tahun 2012 - 2032", "SHAPE_Length": 0.088477675795381877, "SHAPE_Area": 0.00012420774162125186 }, "geometry": { "type": "MultiPolygon", "coordinates": [ [ [ [ 107.513884, -6.899479, 0.0 ], [ 107.514225, -6.899623, 0.0 ], [ 107.51442, -6.899767, 0.0 ], [ 107.514568, -6.900107, 0.0 ], [ 107.51483, -6.900789, 0.0 ], [ 107.515218, -6.901535, 0.0 ], [ 107.515703, -6.902776, 0.0 ], [ 107.516155, -6.903316, 0.0 ], [ 107.516156, -6.903317, 0.0 ], [ 107.516281, -6.903466, 0.0 ], [ 107.516859, -6.904205, 0.0 ], [ 107.517438, -6.904991, 0.0 ], [ 107.517707, -6.906161, 0.0 ], [ 107.518262, -6.907019, 0.0 ], [ 107.518315, -6.907903, 0.0 ], [ 107.518866, -6.908187, 0.0 ], [ 107.51956, -6.908184, 0.0 ], [ 107.520304, -6.90861, 0.0 ], [ 107.520786, -6.909277, 0.0 ], [ 107.52141, -6.909632, 0.0 ], [ 107.522008, -6.909534, 0.0 ], [ 107.52272, -6.909418, 0.0 ], [ 107.522988, -6.909375, 0.0 ], [ 107.523099, -6.909517, 0.0 ], [ 107.523354, -6.909799, 0.0 ], [ 107.523704, -6.909981, 0.0 ], [ 107.523903, -6.910432, 0.0 ], [ 107.523762, -6.910983, 0.0 ], [ 107.524531, -6.911529, 0.0 ], [ 107.524914, -6.911551, 0.0 ], [ 107.525198, -6.91088, 0.0 ], [ 107.525414, -6.910734, 0.0 ], [ 107.525493, -6.910683, 0.0 ], [ 107.525981, -6.910701, 0.0 ], [ 107.526676, -6.910855, 0.0 ], [ 107.527342, -6.911262, 0.0 ], [ 107.527723, -6.911607, 0.0 ], [ 107.528357, -6.912014, 0.0 ], [ 107.5288, -6.912265, 0.0 ], [ 107.529498, -6.912798, 0.0 ], [ 107.529628, -6.913491, 0.0 ], [ 107.529284, -6.914061, 0.0 ], [ 107.529096, -6.914473, 0.0 ], [ 107.52882, -6.915895, 0.0 ], [ 107.528634, -6.916527, 0.0 ], [ 107.528706, -6.916757, 0.0 ], [ 107.52866, -6.916746, 0.0 ], [ 107.528431, -6.916718, 0.0 ], [ 107.528417, -6.916709, 0.0 ], [ 107.528398, -6.916697, 0.0 ], [ 107.528376, -6.916673, 0.0 ], [ 107.528328, -6.916633, 0.0 ], [ 107.527849, -6.916779, 0.0 ], [ 107.527677, -6.916864, 0.0 ], [ 107.527643, -6.916881, 0.0 ], [ 107.527579, -6.916961, 0.0 ], [ 107.52756, -6.916984, 0.0 ], [ 107.527471, -6.917095, 0.0 ], [ 107.527356, -6.917096, 0.0 ], [ 107.527252, -6.917392, 0.0 ], [ 107.52723, -6.917451, 0.0 ], [ 107.52714, -6.917705, 0.0 ], [ 107.527092, -6.917834, 0.0 ], [ 107.52707, -6.917894, 0.0 ], [ 107.52703, -6.917999, 0.0 ], [ 107.527021, -6.918041, 0.0 ], [ 107.526953, -6.918346, 0.0 ], [ 107.526949, -6.918361, 0.0 ], [ 107.5269, -6.918528, 0.0 ], [ 107.526811, -6.918672, 0.0 ], [ 107.526801, -6.918688, 0.0 ], [ 107.526755, -6.918756, 0.0 ], [ 107.526779, -6.918895, 0.0 ], [ 107.526782, -6.919048, 0.0 ], [ 107.526787, -6.919318, 0.0 ], [ 107.526787, -6.919319, 0.0 ], [ 107.526629, -6.919411, 0.0 ], [ 107.526602, -6.919572, 0.0 ], [ 107.526594, -6.919724, 0.0 ], [ 107.526572, -6.919858, 0.0 ], [ 107.526557, -6.919943, 0.0 ], [ 107.526556, -6.919953, 0.0 ], [ 107.526555, -6.919957, 0.0 ], [ 107.526508, -6.920014, 0.0 ], [ 107.526448, -6.920086, 0.0 ], [ 107.526445, -6.920089, 0.0 ], [ 107.526443, -6.920092, 0.0 ], [ 107.526432, -6.920157, 0.0 ], [ 107.526427, -6.920189, 0.0 ], [ 107.52648, -6.920239, 0.0 ], [ 107.526488, -6.920246, 0.0 ], [ 107.526493, -6.920252, 0.0 ], [ 107.52655, -6.920308, 0.0 ], [ 107.526565, -6.920324, 0.0 ], [ 107.526619, -6.920441, 0.0 ], [ 107.526628, -6.920454, 0.0 ], [ 107.526629, -6.920455, 0.0 ], [ 107.52664, -6.920472, 0.0 ], [ 107.526686, -6.920539, 0.0 ], [ 107.526692, -6.920548, 0.0 ], [ 107.526688, -6.920556, 0.0 ], [ 107.52658, -6.920761, 0.0 ], [ 107.526576, -6.920769, 0.0 ], [ 107.526571, -6.920777, 0.0 ], [ 107.526523, -6.920848, 0.0 ], [ 107.526498, -6.920848, 0.0 ], [ 107.526497, -6.920848, 0.0 ], [ 107.526414, -6.92085, 0.0 ], [ 107.526358, -6.920856, 0.0 ], [ 107.526282, -6.920863, 0.0 ], [ 107.526065, -6.920902, 0.0 ], [ 107.526023, -6.920905, 0.0 ], [ 107.525967, -6.92091, 0.0 ], [ 107.525966, -6.92091, 0.0 ], [ 107.525934, -6.920941, 0.0 ], [ 107.525881, -6.920993, 0.0 ], [ 107.52585, -6.921024, 0.0 ], [ 107.525821, -6.921053, 0.0 ], [ 107.525778, -6.921108, 0.0 ], [ 107.525726, -6.921175, 0.0 ], [ 107.525715, -6.921182, 0.0 ], [ 107.525691, -6.921194, 0.0 ], [ 107.52569, -6.921195, 0.0 ], [ 107.525659, -6.921212, 0.0 ], [ 107.525534, -6.921083, 0.0 ], [ 107.525516, -6.921064, 0.0 ], [ 107.525497, -6.921044, 0.0 ], [ 107.52548, -6.921026, 0.0 ], [ 107.525466, -6.921012, 0.0 ], [ 107.525459, -6.921007, 0.0 ], [ 107.525247, -6.920858, 0.0 ], [ 107.525218, -6.920837, 0.0 ], [ 107.525177, -6.920808, 0.0 ], [ 107.52505, -6.92075, 0.0 ], [ 107.52479, -6.92063, 0.0 ], [ 107.52467, -6.92057, 0.0 ], [ 107.524657, -6.92056, 0.0 ], [ 107.52456, -6.92048, 0.0 ], [ 107.52437, -6.92033, 0.0 ], [ 107.52427, -6.92029, 0.0 ], [ 107.524078, -6.920272, 0.0 ], [ 107.523795, -6.92013, 0.0 ], [ 107.523655, -6.920064, 0.0 ], [ 107.523552, -6.920016, 0.0 ], [ 107.523373, -6.919919, 0.0 ], [ 107.523324, -6.919844, 0.0 ], [ 107.523245, -6.919787, 0.0 ], [ 107.523159, -6.91973, 0.0 ], [ 107.522881, -6.919637, 0.0 ], [ 107.522317, -6.919544, 0.0 ], [ 107.521753, -6.91938, 0.0 ], [ 107.521549, -6.919213, 0.0 ], [ 107.521158, -6.918977, 0.0 ], [ 107.520997, -6.918905, 0.0 ], [ 107.520542, -6.918741, 0.0 ], [ 107.520388, -6.918729, 0.0 ], [ 107.520187, -6.918662, 0.0 ], [ 107.5198, -6.918631, 0.0 ], [ 107.519565, -6.918692, 0.0 ], [ 107.519464, -6.91871, 0.0 ], [ 107.519338, -6.918729, 0.0 ], [ 107.519219, -6.918765, 0.0 ], [ 107.51913, -6.918832, 0.0 ], [ 107.51901, -6.91888, 0.0 ], [ 107.518983, -6.918824, 0.0 ], [ 107.51895, -6.918758, 0.0 ], [ 107.518901, -6.918593, 0.0 ], [ 107.518875, -6.918505, 0.0 ], [ 107.518816, -6.918308, 0.0 ], [ 107.518749, -6.918083, 0.0 ], [ 107.518681, -6.917854, 0.0 ], [ 107.51867, -6.917726, 0.0 ], [ 107.518658, -6.917567, 0.0 ], [ 107.518648, -6.917496, 0.0 ], [ 107.518477, -6.917539, 0.0 ], [ 107.518314, -6.917575, 0.0 ], [ 107.518294, -6.917576, 0.0 ], [ 107.51811, -6.917585, 0.0 ], [ 107.518084, -6.917576, 0.0 ], [ 107.518082, -6.917578, 0.0 ], [ 107.517982, -6.917444, 0.0 ], [ 107.517925, -6.917336, 0.0 ], [ 107.517904, -6.917229, 0.0 ], [ 107.517904, -6.917101, 0.0 ], [ 107.517918, -6.916987, 0.0 ], [ 107.517946, -6.916901, 0.0 ], [ 107.518003, -6.916837, 0.0 ], [ 107.518146, -6.916822, 0.0 ], [ 107.518296, -6.916801, 0.0 ], [ 107.518339, -6.916751, 0.0 ], [ 107.518346, -6.916673, 0.0 ], [ 107.518303, -6.916544, 0.0 ], [ 107.518225, -6.916451, 0.0 ], [ 107.518125, -6.91633, 0.0 ], [ 107.517917, -6.916083, 0.0 ], [ 107.517806, -6.915972, 0.0 ], [ 107.517682, -6.915845, 0.0 ], [ 107.517625, -6.915723, 0.0 ], [ 107.517583, -6.915583, 0.0 ], [ 107.517552, -6.915469, 0.0 ], [ 107.517518, -6.915345, 0.0 ], [ 107.517458, -6.915159, 0.0 ], [ 107.517389, -6.915, 0.0 ], [ 107.51729, -6.914824, 0.0 ], [ 107.517183, -6.914674, 0.0 ], [ 107.51704, -6.914495, 0.0 ], [ 107.516633, -6.914088, 0.0 ], [ 107.516444, -6.913889, 0.0 ], [ 107.516392, -6.913815, 0.0 ], [ 107.515753, -6.912907, 0.0 ], [ 107.51567, -6.912693, 0.0 ], [ 107.51567, -6.912502, 0.0 ], [ 107.515763, -6.912349, 0.0 ], [ 107.516253, -6.911777, 0.0 ], [ 107.516479, -6.911634, 0.0 ], [ 107.516745, -6.91153, 0.0 ], [ 107.516926, -6.911484, 0.0 ], [ 107.517118, -6.91149, 0.0 ], [ 107.517283, -6.911462, 0.0 ], [ 107.517418, -6.911434, 0.0 ], [ 107.517572, -6.911373, 0.0 ], [ 107.517686, -6.911319, 0.0 ], [ 107.518219, -6.911014, 0.0 ], [ 107.518314, -6.910891, 0.0 ], [ 107.518367, -6.91077, 0.0 ], [ 107.518362, -6.910529, 0.0 ], [ 107.518333, -6.910358, 0.0 ], [ 107.518319, -6.91017, 0.0 ], [ 107.518376, -6.909902, 0.0 ], [ 107.518423, -6.909741, 0.0 ], [ 107.518491, -6.90963, 0.0 ], [ 107.518612, -6.909527, 0.0 ], [ 107.518797, -6.909323, 0.0 ], [ 107.519031, -6.909087, 0.0 ], [ 107.51903, -6.909078, 0.0 ], [ 107.519025, -6.909022, 0.0 ], [ 107.519025, -6.909021, 0.0 ], [ 107.518789, -6.908974, 0.0 ], [ 107.518711, -6.908945, 0.0 ], [ 107.518495, -6.908865, 0.0 ], [ 107.518483, -6.90886, 0.0 ], [ 107.518478, -6.908856, 0.0 ], [ 107.518427, -6.908816, 0.0 ], [ 107.518383, -6.908781, 0.0 ], [ 107.518337, -6.908744, 0.0 ], [ 107.518048, -6.908433, 0.0 ], [ 107.518034, -6.908424, 0.0 ], [ 107.518008, -6.908408, 0.0 ], [ 107.517891, -6.908333, 0.0 ], [ 107.517595, -6.908338, 0.0 ], [ 107.517452, -6.908414, 0.0 ], [ 107.517309, -6.9085, 0.0 ], [ 107.517109, -6.908576, 0.0 ], [ 107.516909, -6.908643, 0.0 ], [ 107.51669, -6.908681, 0.0 ], [ 107.516529, -6.908671, 0.0 ], [ 107.516319, -6.908643, 0.0 ], [ 107.516176, -6.908567, 0.0 ], [ 107.516129, -6.908452, 0.0 ], [ 107.51611, -6.908357, 0.0 ], [ 107.5161, -6.908195, 0.0 ], [ 107.516034, -6.908072, 0.0 ], [ 107.515977, -6.907977, 0.0 ], [ 107.5159, -6.907891, 0.0 ], [ 107.515862, -6.907767, 0.0 ], [ 107.515862, -6.907615, 0.0 ], [ 107.5159, -6.907463, 0.0 ], [ 107.515957, -6.907367, 0.0 ], [ 107.516053, -6.90731, 0.0 ], [ 107.516157, -6.90732, 0.0 ], [ 107.516243, -6.90731, 0.0 ], [ 107.516329, -6.907196, 0.0 ], [ 107.516416, -6.90703, 0.0 ], [ 107.516175, -6.906681, 0.0 ], [ 107.516175, -6.906679, 0.0 ], [ 107.516467, -6.906498, 0.0 ], [ 107.516714, -6.90636, 0.0 ], [ 107.516712, -6.906351, 0.0 ], [ 107.516686, -6.906254, 0.0 ], [ 107.516579, -6.905856, 0.0 ], [ 107.516446, -6.905409, 0.0 ], [ 107.516357, -6.905278, 0.0 ], [ 107.516265, -6.905235, 0.0 ], [ 107.516172, -6.905214, 0.0 ], [ 107.516043, -6.905206, 0.0 ], [ 107.515779, -6.905171, 0.0 ], [ 107.515536, -6.905056, 0.0 ], [ 107.515287, -6.904835, 0.0 ], [ 107.515206, -6.904768, 0.0 ], [ 107.515001, -6.9046, 0.0 ], [ 107.514924, -6.904484, 0.0 ], [ 107.514891, -6.904434, 0.0 ], [ 107.514891, -6.904434, 0.0 ], [ 107.51489, -6.904432, 0.0 ], [ 107.514788, -6.904277, 0.0 ], [ 107.51473, -6.90419, 0.0 ], [ 107.514728, -6.904187, 0.0 ], [ 107.514695, -6.904133, 0.0 ], [ 107.51469, -6.904126, 0.0 ], [ 107.514636, -6.90404, 0.0 ], [ 107.514553, -6.903907, 0.0 ], [ 107.514374, -6.903684, 0.0 ], [ 107.514366, -6.903675, 0.0 ], [ 107.514317, -6.90363, 0.0 ], [ 107.51413, -6.903458, 0.0 ], [ 107.513856, -6.903305, 0.0 ], [ 107.513823, -6.903287, 0.0 ], [ 107.513755, -6.903249, 0.0 ], [ 107.513753, -6.903248, 0.0 ], [ 107.513749, -6.903246, 0.0 ], [ 107.513628, -6.903205, 0.0 ], [ 107.513432, -6.903109, 0.0 ], [ 107.5134, -6.903094, 0.0 ], [ 107.513309, -6.903049, 0.0 ], [ 107.513298, -6.903043, 0.0 ], [ 107.513262, -6.903021, 0.0 ], [ 107.512964, -6.902958, 0.0 ], [ 107.512871, -6.902912, 0.0 ], [ 107.512829, -6.902892, 0.0 ], [ 107.512827, -6.902891, 0.0 ], [ 107.51271, -6.90283, 0.0 ], [ 107.512624, -6.902797, 0.0 ], [ 107.512604, -6.902789, 0.0 ], [ 107.512604, -6.902789, 0.0 ], [ 107.512603, -6.902789, 0.0 ], [ 107.512561, -6.902771, 0.0 ], [ 107.512526, -6.902756, 0.0 ], [ 107.512424, -6.902729, 0.0 ], [ 107.512421, -6.902729, 0.0 ], [ 107.512395, -6.902725, 0.0 ], [ 107.512378, -6.902722, 0.0 ], [ 107.512329, -6.902715, 0.0 ], [ 107.512314, -6.902711, 0.0 ], [ 107.512305, -6.902709, 0.0 ], [ 107.512299, -6.902708, 0.0 ], [ 107.512299, -6.902708, 0.0 ], [ 107.512139, -6.902637, 0.0 ], [ 107.512017, -6.902465, 0.0 ], [ 107.511961, -6.902259, 0.0 ], [ 107.511933, -6.902156, 0.0 ], [ 107.51182, -6.901959, 0.0 ], [ 107.511743, -6.901906, 0.0 ], [ 107.511731, -6.901898, 0.0 ], [ 107.511724, -6.901893, 0.0 ], [ 107.511664, -6.901854, 0.0 ], [ 107.511639, -6.901838, 0.0 ], [ 107.511624, -6.901828, 0.0 ], [ 107.511279, -6.901596, 0.0 ], [ 107.511095, -6.901442, 0.0 ], [ 107.510976, -6.901305, 0.0 ], [ 107.510885, -6.901198, 0.0 ], [ 107.510893, -6.901116, 0.0 ], [ 107.510903, -6.901005, 0.0 ], [ 107.510901, -6.900935, 0.0 ], [ 107.510898, -6.900791, 0.0 ], [ 107.510895, -6.900761, 0.0 ], [ 107.510887, -6.900685, 0.0 ], [ 107.510887, -6.900685, 0.0 ], [ 107.510887, -6.900682, 0.0 ], [ 107.51086, -6.90041, 0.0 ], [ 107.510851, -6.900359, 0.0 ], [ 107.510845, -6.900323, 0.0 ], [ 107.510827, -6.900219, 0.0 ], [ 107.510821, -6.900204, 0.0 ], [ 107.510724, -6.899953, 0.0 ], [ 107.510718, -6.899941, 0.0 ], [ 107.510715, -6.899934, 0.0 ], [ 107.510677, -6.899853, 0.0 ], [ 107.510662, -6.899821, 0.0 ], [ 107.510625, -6.899743, 0.0 ], [ 107.510596, -6.899682, 0.0 ], [ 107.510539, -6.899482, 0.0 ], [ 107.510504, -6.89936, 0.0 ], [ 107.5105, -6.899343, 0.0 ], [ 107.510675, -6.899447, 0.0 ], [ 107.510919, -6.899591, 0.0 ], [ 107.51121, -6.89959, 0.0 ], [ 107.511404, -6.899346, 0.0 ], [ 107.511597, -6.899102, 0.0 ], [ 107.512081, -6.898808, 0.0 ], [ 107.512227, -6.898759, 0.0 ], [ 107.512421, -6.89866, 0.0 ], [ 107.512565, -6.898417, 0.0 ], [ 107.512807, -6.898124, 0.0 ], [ 107.513, -6.897831, 0.0 ], [ 107.513193, -6.897636, 0.0 ], [ 107.513387, -6.897441, 0.0 ], [ 107.513583, -6.897683, 0.0 ], [ 107.513634, -6.898265, 0.0 ], [ 107.513636, -6.898654, 0.0 ], [ 107.513639, -6.899091, 0.0 ], [ 107.513884, -6.899479, 0.0 ] ], [ [ 107.521039, -6.915342, 0.0 ], [ 107.521464, -6.915525, 0.0 ], [ 107.522176, -6.915497, 0.0 ], [ 107.522564, -6.91543, 0.0 ], [ 107.522845, -6.915267, 0.0 ], [ 107.522955, -6.914716, 0.0 ], [ 107.523001, -6.914315, 0.0 ], [ 107.522855, -6.913784, 0.0 ], [ 107.522458, -6.913368, 0.0 ], [ 107.522097, -6.912975, 0.0 ], [ 107.522041, -6.912659, 0.0 ], [ 107.52198, -6.91236, 0.0 ], [ 107.521847, -6.912187, 0.0 ], [ 107.521505, -6.912004, 0.0 ], [ 107.521164, -6.911886, 0.0 ], [ 107.520841, -6.911966, 0.0 ], [ 107.520693, -6.9122, 0.0 ], [ 107.520731, -6.91269, 0.0 ], [ 107.520895, -6.913137, 0.0 ], [ 107.520863, -6.913896, 0.0 ], [ 107.520935, -6.915044, 0.0 ], [ 107.521039, -6.915342, 0.0 ] ] ] ] } },
{ "type": "Feature", "properties": { "NAMOBJ": "Fungsi dan Daya Dukung Lingkungan Hidup", "WADMPR": "Provinsi Jawa Barat", "WADMKK": "Kota Cimahi", "SDTPTG": 4, "REMARK": "Kawasan Resapan Cileuweung Kamarung", "SBDATA": "Analisis RTRW Kota Cimahi Perda No 4 Tahun 2012 - 2032", "SHAPE_Length": 0.18012882836522842, "SHAPE_Area": 0.00055066899293205118 }, "geometry": { "type": "MultiPolygon", "coordinates": [ [ [ [ 107.547936, -6.828357, 0.0 ], [ 107.548002, -6.828381, 0.0 ], [ 107.548014, -6.828337, 0.0 ], [ 107.548024, -6.828304, 0.0 ], [ 107.548054, -6.828312, 0.0 ], [ 107.548055, -6.828312, 0.0 ], [ 107.548462, -6.828417, 0.0 ], [ 107.548664, -6.828477, 0.0 ], [ 107.548843, -6.828531, 0.0 ], [ 107.548901, -6.828549, 0.0 ], [ 107.5491, -6.82861, 0.0 ], [ 107.549386, -6.828707, 0.0 ], [ 107.54966, -6.828766, 0.0 ], [ 107.549725, -6.828783, 0.0 ], [ 107.550193, -6.828888, 0.0 ], [ 107.550649, -6.82901, 0.0 ], [ 107.55083, -6.829059, 0.0 ], [ 107.551044, -6.829132, 0.0 ], [ 107.551093, -6.829148, 0.0 ], [ 107.551125, -6.829159, 0.0 ], [ 107.551235, -6.829183, 0.0 ], [ 107.55133, -6.82923, 0.0 ], [ 107.551364, -6.829256, 0.0 ], [ 107.55143, -6.829307, 0.0 ], [ 107.551514, -6.829318, 0.0 ], [ 107.55175, -6.829351, 0.0 ], [ 107.551734, -6.829465, 0.0 ], [ 107.551732, -6.829484, 0.0 ], [ 107.551732, -6.829485, 0.0 ], [ 107.551714, -6.829587, 0.0 ], [ 107.551628, -6.829814, 0.0 ], [ 107.551616, -6.829845, 0.0 ], [ 107.551616, -6.829846, 0.0 ], [ 107.551569, -6.830111, 0.0 ], [ 107.551509, -6.830455, 0.0 ], [ 107.551507, -6.830466, 0.0 ], [ 107.551509, -6.830597, 0.0 ], [ 107.55151, -6.830704, 0.0 ], [ 107.551446, -6.830924, 0.0 ], [ 107.551445, -6.830924, 0.0 ], [ 107.551443, -6.830939, 0.0 ], [ 107.551426, -6.831057, 0.0 ], [ 107.551426, -6.831059, 0.0 ], [ 107.551446, -6.831105, 0.0 ], [ 107.551456, -6.831127, 0.0 ], [ 107.551509, -6.831191, 0.0 ], [ 107.551501, -6.831238, 0.0 ], [ 107.551495, -6.831275, 0.0 ], [ 107.551476, -6.831381, 0.0 ], [ 107.551389, -6.831581, 0.0 ], [ 107.551358, -6.831653, 0.0 ], [ 107.551291, -6.831748, 0.0 ], [ 107.551253, -6.831803, 0.0 ], [ 107.551143, -6.831908, 0.0 ], [ 107.551014, -6.832166, 0.0 ], [ 107.550995, -6.832211, 0.0 ], [ 107.550975, -6.832256, 0.0 ], [ 107.550695, -6.832687, 0.0 ], [ 107.550679, -6.832711, 0.0 ], [ 107.550569, -6.832881, 0.0 ], [ 107.550558, -6.832896, 0.0 ], [ 107.550289, -6.833442, 0.0 ], [ 107.550248, -6.833526, 0.0 ], [ 107.550115, -6.833799, 0.0 ], [ 107.550109, -6.833812, 0.0 ], [ 107.550103, -6.833842, 0.0 ], [ 107.550081, -6.833963, 0.0 ], [ 107.550081, -6.833963, 0.0 ], [ 107.550144, -6.8341, 0.0 ], [ 107.550183, -6.834181, 0.0 ], [ 107.550208, -6.834232, 0.0 ], [ 107.550219, -6.834255, 0.0 ], [ 107.550223, -6.834262, 0.0 ], [ 107.550224, -6.834264, 0.0 ], [ 107.550229, -6.834374, 0.0 ], [ 107.550231, -6.834416, 0.0 ], [ 107.550202, -6.83452, 0.0 ], [ 107.550157, -6.834594, 0.0 ], [ 107.550139, -6.834625, 0.0 ], [ 107.550136, -6.83463, 0.0 ], [ 107.55011, -6.834673, 0.0 ], [ 107.549919, -6.834932, 0.0 ], [ 107.549905, -6.834952, 0.0 ], [ 107.549871, -6.834998, 0.0 ], [ 107.54982, -6.835076, 0.0 ], [ 107.549638, -6.835355, 0.0 ], [ 107.5496, -6.835413, 0.0 ], [ 107.54959, -6.835437, 0.0 ], [ 107.549543, -6.835552, 0.0 ], [ 107.549538, -6.835565, 0.0 ], [ 107.549532, -6.835578, 0.0 ], [ 107.549474, -6.835799, 0.0 ], [ 107.549473, -6.835804, 0.0 ], [ 107.549451, -6.835887, 0.0 ], [ 107.549446, -6.835906, 0.0 ], [ 107.549395, -6.836119, 0.0 ], [ 107.549387, -6.836153, 0.0 ], [ 107.549387, -6.836153, 0.0 ], [ 107.549391, -6.836166, 0.0 ], [ 107.549477, -6.836498, 0.0 ], [ 107.549554, -6.836626, 0.0 ], [ 107.549579, -6.836669, 0.0 ], [ 107.549599, -6.836752, 0.0 ], [ 107.549606, -6.836781, 0.0 ], [ 107.549607, -6.836782, 0.0 ], [ 107.549602, -6.836809, 0.0 ], [ 107.549585, -6.83692, 0.0 ], [ 107.549509, -6.837081, 0.0 ], [ 107.549486, -6.83713, 0.0 ], [ 107.549444, -6.83722, 0.0 ], [ 107.549443, -6.83722, 0.0 ], [ 107.549406, -6.837356, 0.0 ], [ 107.549395, -6.837469, 0.0 ], [ 107.549362, -6.837785, 0.0 ], [ 107.549351, -6.83789, 0.0 ], [ 107.549351, -6.83789, 0.0 ], [ 107.549357, -6.838059, 0.0 ], [ 107.549358, -6.838077, 0.0 ], [ 107.549369, -6.838377, 0.0 ], [ 107.549365, -6.838438, 0.0 ], [ 107.549357, -6.838545, 0.0 ], [ 107.549593, -6.83861, 0.0 ], [ 107.549731, -6.838644, 0.0 ], [ 107.54987, -6.83867, 0.0 ], [ 107.550083, -6.83871, 0.0 ], [ 107.550293, -6.838782, 0.0 ], [ 107.550378, -6.83881, 0.0 ], [ 107.550716, -6.838874, 0.0 ], [ 107.550743, -6.838879, 0.0 ], [ 107.550754, -6.838882, 0.0 ], [ 107.550821, -6.838899, 0.0 ], [ 107.551052, -6.838958, 0.0 ], [ 107.551197, -6.838996, 0.0 ], [ 107.551235, -6.839005, 0.0 ], [ 107.551749, -6.839178, 0.0 ], [ 107.551717, -6.839345, 0.0 ], [ 107.551893, -6.839389, 0.0 ], [ 107.552546, -6.839664, 0.0 ], [ 107.55275, -6.839737, 0.0 ], [ 107.552812, -6.83976, 0.0 ], [ 107.552836, -6.839764, 0.0 ], [ 107.552836, -6.839776, 0.0 ], [ 107.552833, -6.839825, 0.0 ], [ 107.552851, -6.839882, 0.0 ], [ 107.55293, -6.839904, 0.0 ], [ 107.553046, -6.839928, 0.0 ], [ 107.553125, -6.839958, 0.0 ], [ 107.553123, -6.839984, 0.0 ], [ 107.553103, -6.840034, 0.0 ], [ 107.553055, -6.840145, 0.0 ], [ 107.553016, -6.840225, 0.0 ], [ 107.553014, -6.840267, 0.0 ], [ 107.553064, -6.840291, 0.0 ], [ 107.553287, -6.840408, 0.0 ], [ 107.553369, -6.839845, 0.0 ], [ 107.553375, -6.839808, 0.0 ], [ 107.553424, -6.839816, 0.0 ], [ 107.55356, -6.839837, 0.0 ], [ 107.553647, -6.839848, 0.0 ], [ 107.553744, -6.839857, 0.0 ], [ 107.553851, -6.839856, 0.0 ], [ 107.553928, -6.83986, 0.0 ], [ 107.55406, -6.839867, 0.0 ], [ 107.5542, -6.839891, 0.0 ], [ 107.554355, -6.839911, 0.0 ], [ 107.55451, -6.839933, 0.0 ], [ 107.554665, -6.839955, 0.0 ], [ 107.554909, -6.840005, 0.0 ], [ 107.554989, -6.840026, 0.0 ], [ 107.555079, -6.840049, 0.0 ], [ 107.555175, -6.840084, 0.0 ], [ 107.555264, -6.840109, 0.0 ], [ 107.555355, -6.840127, 0.0 ], [ 107.555411, -6.840147, 0.0 ], [ 107.555446, -6.840152, 0.0 ], [ 107.555488, -6.840164, 0.0 ], [ 107.555519, -6.840176, 0.0 ], [ 107.555544, -6.840202, 0.0 ], [ 107.55556, -6.840247, 0.0 ], [ 107.555569, -6.840305, 0.0 ], [ 107.555574, -6.840336, 0.0 ], [ 107.55556, -6.840408, 0.0 ], [ 107.555531, -6.840483, 0.0 ], [ 107.555498, -6.840568, 0.0 ], [ 107.55547, -6.840624, 0.0 ], [ 107.555461, -6.840668, 0.0 ], [ 107.555457, -6.840699, 0.0 ], [ 107.555453, -6.840746, 0.0 ], [ 107.555442, -6.840746, 0.0 ], [ 107.555369, -6.840737, 0.0 ], [ 107.555313, -6.840737, 0.0 ], [ 107.555248, -6.840743, 0.0 ], [ 107.5552, -6.840757, 0.0 ], [ 107.555151, -6.840772, 0.0 ], [ 107.555113, -6.840795, 0.0 ], [ 107.555092, -6.840822, 0.0 ], [ 107.555071, -6.840853, 0.0 ], [ 107.555046, -6.840893, 0.0 ], [ 107.555012, -6.840928, 0.0 ], [ 107.55497, -6.840971, 0.0 ], [ 107.554945, -6.840996, 0.0 ], [ 107.554934, -6.841007, 0.0 ], [ 107.554932, -6.841009, 0.0 ], [ 107.554929, -6.841014, 0.0 ], [ 107.554922, -6.841029, 0.0 ], [ 107.554868, -6.841142, 0.0 ], [ 107.554868, -6.841142, 0.0 ], [ 107.554798, -6.84141, 0.0 ], [ 107.554724, -6.841695, 0.0 ], [ 107.554724, -6.841695, 0.0 ], [ 107.554692, -6.841922, 0.0 ], [ 107.554682, -6.841995, 0.0 ], [ 107.554601, -6.84249, 0.0 ], [ 107.554591, -6.84255, 0.0 ], [ 107.554555, -6.842762, 0.0 ], [ 107.554468, -6.842867, 0.0 ], [ 107.554393, -6.842957, 0.0 ], [ 107.55428, -6.843067, 0.0 ], [ 107.554141, -6.843203, 0.0 ], [ 107.554044, -6.843334, 0.0 ], [ 107.55403, -6.843353, 0.0 ], [ 107.553969, -6.843435, 0.0 ], [ 107.553857, -6.843577, 0.0 ], [ 107.553608, -6.84371, 0.0 ], [ 107.553483, -6.843811, 0.0 ], [ 107.553356, -6.843992, 0.0 ], [ 107.55333, -6.844029, 0.0 ], [ 107.553314, -6.844051, 0.0 ], [ 107.553299, -6.844096, 0.0 ], [ 107.553294, -6.844109, 0.0 ], [ 107.553279, -6.844153, 0.0 ], [ 107.553276, -6.844163, 0.0 ], [ 107.553275, -6.844164, 0.0 ], [ 107.553274, -6.844168, 0.0 ], [ 107.553272, -6.844175, 0.0 ], [ 107.553236, -6.844329, 0.0 ], [ 107.553177, -6.844509, 0.0 ], [ 107.553136, -6.844632, 0.0 ], [ 107.553054, -6.844774, 0.0 ], [ 107.553046, -6.844788, 0.0 ], [ 107.55304, -6.844799, 0.0 ], [ 107.552724, -6.844942, 0.0 ], [ 107.552705, -6.844951, 0.0 ], [ 107.552678, -6.844963, 0.0 ], [ 107.552511, -6.845067, 0.0 ], [ 107.552492, -6.845078, 0.0 ], [ 107.552321, -6.845155, 0.0 ], [ 107.552298, -6.845166, 0.0 ], [ 107.552273, -6.845177, 0.0 ], [ 107.552265, -6.84518, 0.0 ], [ 107.552121, -6.845245, 0.0 ], [ 107.551932, -6.845399, 0.0 ], [ 107.551929, -6.845401, 0.0 ], [ 107.551929, -6.845401, 0.0 ], [ 107.55187, -6.845517, 0.0 ], [ 107.551866, -6.845543, 0.0 ], [ 107.551834, -6.84574, 0.0 ], [ 107.551824, -6.845804, 0.0 ], [ 107.551824, -6.845804, 0.0 ], [ 107.55179, -6.845906, 0.0 ], [ 107.551774, -6.845957, 0.0 ], [ 107.551762, -6.845963, 0.0 ], [ 107.551735, -6.845978, 0.0 ], [ 107.551639, -6.84603, 0.0 ], [ 107.551612, -6.846048, 0.0 ], [ 107.551552, -6.846091, 0.0 ], [ 107.551538, -6.846101, 0.0 ], [ 107.551536, -6.846102, 0.0 ], [ 107.551535, -6.846103, 0.0 ], [ 107.551528, -6.84614, 0.0 ], [ 107.551428, -6.846687, 0.0 ], [ 107.551429, -6.846758, 0.0 ], [ 107.551429, -6.846787, 0.0 ], [ 107.551429, -6.846788, 0.0 ], [ 107.551429, -6.84679, 0.0 ], [ 107.551429, -6.846842, 0.0 ], [ 107.551429, -6.846881, 0.0 ], [ 107.551436, -6.8469, 0.0 ], [ 107.551461, -6.846967, 0.0 ], [ 107.551489, -6.847042, 0.0 ], [ 107.551552, -6.847134, 0.0 ], [ 107.551579, -6.847174, 0.0 ], [ 107.5515, -6.847252, 0.0 ], [ 107.551572, -6.84731, 0.0 ], [ 107.551643, -6.847335, 0.0 ], [ 107.551743, -6.847345, 0.0 ], [ 107.551807, -6.847356, 0.0 ], [ 107.551854, -6.847374, 0.0 ], [ 107.551882, -6.847402, 0.0 ], [ 107.551886, -6.847442, 0.0 ], [ 107.551886, -6.847454, 0.0 ], [ 107.551886, -6.847481, 0.0 ], [ 107.551995, -6.84755, 0.0 ], [ 107.551927, -6.847766, 0.0 ], [ 107.551982, -6.847787, 0.0 ], [ 107.552033, -6.847806, 0.0 ], [ 107.55205, -6.847813, 0.0 ], [ 107.552303, -6.847898, 0.0 ], [ 107.552589, -6.848025, 0.0 ], [ 107.55261, -6.848034, 0.0 ], [ 107.552607, -6.848052, 0.0 ], [ 107.552723, -6.8481, 0.0 ], [ 107.552784, -6.848125, 0.0 ], [ 107.552885, -6.848166, 0.0 ], [ 107.553038, -6.848227, 0.0 ], [ 107.553031, -6.848255, 0.0 ], [ 107.553387, -6.848379, 0.0 ], [ 107.553413, -6.848388, 0.0 ], [ 107.553449, -6.8484, 0.0 ], [ 107.553399, -6.848571, 0.0 ], [ 107.553399, -6.848573, 0.0 ], [ 107.553412, -6.848578, 0.0 ], [ 107.553606, -6.848649, 0.0 ], [ 107.553756, -6.848705, 0.0 ], [ 107.553877, -6.848759, 0.0 ], [ 107.553909, -6.848773, 0.0 ], [ 107.553897, -6.848799, 0.0 ], [ 107.55377, -6.849066, 0.0 ], [ 107.553727, -6.849116, 0.0 ], [ 107.55367, -6.849183, 0.0 ], [ 107.553645, -6.849251, 0.0 ], [ 107.553631, -6.849308, 0.0 ], [ 107.553631, -6.849353, 0.0 ], [ 107.553631, -6.84938, 0.0 ], [ 107.553639, -6.849433, 0.0 ], [ 107.553642, -6.849451, 0.0 ], [ 107.553677, -6.849501, 0.0 ], [ 107.55372, -6.84954, 0.0 ], [ 107.553774, -6.849555, 0.0 ], [ 107.553878, -6.849566, 0.0 ], [ 107.553938, -6.849572, 0.0 ], [ 107.553913, -6.849672, 0.0 ], [ 107.553913, -6.849678, 0.0 ], [ 107.553909, -6.849729, 0.0 ], [ 107.55392, -6.849779, 0.0 ], [ 107.553959, -6.849829, 0.0 ], [ 107.554027, -6.849879, 0.0 ], [ 107.554124, -6.849954, 0.0 ], [ 107.554223, -6.850033, 0.0 ], [ 107.554316, -6.850104, 0.0 ], [ 107.554406, -6.850135, 0.0 ], [ 107.554421, -6.850141, 0.0 ], [ 107.554459, -6.850154, 0.0 ], [ 107.554463, -6.850139, 0.0 ], [ 107.554473, -6.850097, 0.0 ], [ 107.554498, -6.850076, 0.0 ], [ 107.554538, -6.850054, 0.0 ], [ 107.55458, -6.850054, 0.0 ], [ 107.554623, -6.850083, 0.0 ], [ 107.554641, -6.850126, 0.0 ], [ 107.554643, -6.850156, 0.0 ], [ 107.554645, -6.850172, 0.0 ], [ 107.554637, -6.850236, 0.0 ], [ 107.55464, -6.850241, 0.0 ], [ 107.554666, -6.85029, 0.0 ], [ 107.55466, -6.850352, 0.0 ], [ 107.554659, -6.850365, 0.0 ], [ 107.554765, -6.850396, 0.0 ], [ 107.555076, -6.85049, 0.0 ], [ 107.555162, -6.850522, 0.0 ], [ 107.555194, -6.850461, 0.0 ], [ 107.555366, -6.850579, 0.0 ], [ 107.555513, -6.850638, 0.0 ], [ 107.555464, -6.8507, 0.0 ], [ 107.55543, -6.850809, 0.0 ], [ 107.555445, -6.850944, 0.0 ], [ 107.55549, -6.851067, 0.0 ], [ 107.555511, -6.851125, 0.0 ], [ 107.555445, -6.851369, 0.0 ], [ 107.555426, -6.851487, 0.0 ], [ 107.555418, -6.851577, 0.0 ], [ 107.555325, -6.851966, 0.0 ], [ 107.555288, -6.85212, 0.0 ], [ 107.555281, -6.852228, 0.0 ], [ 107.555281, -6.852229, 0.0 ], [ 107.555284, -6.852364, 0.0 ], [ 107.555286, -6.852436, 0.0 ], [ 107.555273, -6.852671, 0.0 ], [ 107.555186, -6.852842, 0.0 ], [ 107.555163, -6.852889, 0.0 ], [ 107.555079, -6.853032, 0.0 ], [ 107.555031, -6.853115, 0.0 ], [ 107.555052, -6.853317, 0.0 ], [ 107.555056, -6.85335, 0.0 ], [ 107.555057, -6.853441, 0.0 ], [ 107.554979, -6.853549, 0.0 ], [ 107.554925, -6.853574, 0.0 ], [ 107.555223, -6.853816, 0.0 ], [ 107.555255, -6.853798, 0.0 ], [ 107.555301, -6.853813, 0.0 ], [ 107.55533, -6.853841, 0.0 ], [ 107.555358, -6.853879, 0.0 ], [ 107.555362, -6.853884, 0.0 ], [ 107.555373, -6.853938, 0.0 ], [ 107.555725, -6.854132, 0.0 ], [ 107.555742, -6.854153, 0.0 ], [ 107.555752, -6.854165, 0.0 ], [ 107.555756, -6.854169, 0.0 ], [ 107.555726, -6.854272, 0.0 ], [ 107.555685, -6.854405, 0.0 ], [ 107.555644, -6.854531, 0.0 ], [ 107.555698, -6.854576, 0.0 ], [ 107.555933, -6.854723, 0.0 ], [ 107.556179, -6.854883, 0.0 ], [ 107.556394, -6.855008, 0.0 ], [ 107.556465, -6.855012, 0.0 ], [ 107.556583, -6.855048, 0.0 ], [ 107.556626, -6.855069, 0.0 ], [ 107.556665, -6.855055, 0.0 ], [ 107.556754, -6.854962, 0.0 ], [ 107.556808, -6.854976, 0.0 ], [ 107.5569, -6.854933, 0.0 ], [ 107.556961, -6.854905, 0.0 ], [ 107.557029, -6.854862, 0.0 ], [ 107.557086, -6.854791, 0.0 ], [ 107.557214, -6.854844, 0.0 ], [ 107.5574, -6.854944, 0.0 ], [ 107.557575, -6.855033, 0.0 ], [ 107.557639, -6.855094, 0.0 ], [ 107.557746, -6.855172, 0.0 ], [ 107.557814, -6.85523, 0.0 ], [ 107.557859, -6.85518, 0.0 ], [ 107.557975, -6.855247, 0.0 ], [ 107.558185, -6.855394, 0.0 ], [ 107.558285, -6.855487, 0.0 ], [ 107.558464, -6.855644, 0.0 ], [ 107.558683, -6.855792, 0.0 ], [ 107.559027, -6.85599, 0.0 ], [ 107.559142, -6.855736, 0.0 ], [ 107.559213, -6.855569, 0.0 ], [ 107.559231, -6.85549, 0.0 ], [ 107.558955, -6.85534, 0.0 ], [ 107.559113, -6.855001, 0.0 ], [ 107.55921, -6.854783, 0.0 ], [ 107.559249, -6.854716, 0.0 ], [ 107.559249, -6.854662, 0.0 ], [ 107.559259, -6.854631, 0.0 ], [ 107.559274, -6.854584, 0.0 ], [ 107.559288, -6.854564, 0.0 ], [ 107.559327, -6.854509, 0.0 ], [ 107.559352, -6.854423, 0.0 ], [ 107.559527, -6.854509, 0.0 ], [ 107.559688, -6.854587, 0.0 ], [ 107.559873, -6.854683, 0.0 ], [ 107.559906, -6.854698, 0.0 ], [ 107.560312, -6.85488, 0.0 ], [ 107.560301, -6.854909, 0.0 ], [ 107.560261, -6.855006, 0.0 ], [ 107.560527, -6.855083, 0.0 ], [ 107.560698, -6.85514, 0.0 ], [ 107.560837, -6.85519, 0.0 ], [ 107.561012, -6.855255, 0.0 ], [ 107.561087, -6.855272, 0.0 ], [ 107.561255, -6.855312, 0.0 ], [ 107.561444, -6.855358, 0.0 ], [ 107.561813, -6.855435, 0.0 ], [ 107.562155, -6.855583, 0.0 ], [ 107.562322, -6.855754, 0.0 ], [ 107.562484, -6.855775, 0.0 ], [ 107.562569, -6.855775, 0.0 ], [ 107.562651, -6.855775, 0.0 ], [ 107.562717, -6.855767, 0.0 ], [ 107.562904, -6.855744, 0.0 ], [ 107.563003, -6.855749, 0.0 ], [ 107.56306, -6.855822, 0.0 ], [ 107.563062, -6.855827, 0.0 ], [ 107.563086, -6.855912, 0.0 ], [ 107.563156, -6.855969, 0.0 ], [ 107.563238, -6.856085, 0.0 ], [ 107.563254, -6.856195, 0.0 ], [ 107.563128, -6.856432, 0.0 ], [ 107.563102, -6.856665, 0.0 ], [ 107.563154, -6.856873, 0.0 ], [ 107.5633, -6.857054, 0.0 ], [ 107.563372, -6.857147, 0.0 ], [ 107.563384, -6.857533, 0.0 ], [ 107.563364, -6.857653, 0.0 ], [ 107.563339, -6.85788, 0.0 ], [ 107.563327, -6.858024, 0.0 ], [ 107.563278, -6.858201, 0.0 ], [ 107.563226, -6.858294, 0.0 ], [ 107.563164, -6.858329, 0.0 ], [ 107.56302, -6.858404, 0.0 ], [ 107.562944, -6.858484, 0.0 ], [ 107.562908, -6.858596, 0.0 ], [ 107.563002, -6.858696, 0.0 ], [ 107.563096, -6.858725, 0.0 ], [ 107.563159, -6.858745, 0.0 ], [ 107.563183, -6.858763, 0.0 ], [ 107.563244, -6.85881, 0.0 ], [ 107.563272, -6.858879, 0.0 ], [ 107.563115, -6.859006, 0.0 ], [ 107.56297, -6.859122, 0.0 ], [ 107.562918, -6.859145, 0.0 ], [ 107.562798, -6.859197, 0.0 ], [ 107.562746, -6.859225, 0.0 ], [ 107.562668, -6.85927, 0.0 ], [ 107.562554, -6.859354, 0.0 ], [ 107.562528, -6.859374, 0.0 ], [ 107.562457, -6.859492, 0.0 ], [ 107.562458, -6.859543, 0.0 ], [ 107.562459, -6.85963, 0.0 ], [ 107.56246, -6.859708, 0.0 ], [ 107.56247, -6.859736, 0.0 ], [ 107.562486, -6.859784, 0.0 ], [ 107.562554, -6.859988, 0.0 ], [ 107.562556, -6.859992, 0.0 ], [ 107.562591, -6.860104, 0.0 ], [ 107.562587, -6.860134, 0.0 ], [ 107.562581, -6.860173, 0.0 ], [ 107.562444, -6.860215, 0.0 ], [ 107.562083, -6.860325, 0.0 ], [ 107.562019, -6.860326, 0.0 ], [ 107.56198, -6.860326, 0.0 ], [ 107.561886, -6.860298, 0.0 ], [ 107.561861, -6.86031, 0.0 ], [ 107.561812, -6.860332, 0.0 ], [ 107.561762, -6.860446, 0.0 ], [ 107.561753, -6.860467, 0.0 ], [ 107.561753, -6.860467, 0.0 ], [ 107.561753, -6.860538, 0.0 ], [ 107.561753, -6.860596, 0.0 ], [ 107.561753, -6.860669, 0.0 ], [ 107.56173, -6.860789, 0.0 ], [ 107.561713, -6.860884, 0.0 ], [ 107.561703, -6.860938, 0.0 ], [ 107.561703, -6.860941, 0.0 ], [ 107.561715, -6.860963, 0.0 ], [ 107.561761, -6.86105, 0.0 ], [ 107.561772, -6.861074, 0.0 ], [ 107.561895, -6.861336, 0.0 ], [ 107.561903, -6.861353, 0.0 ], [ 107.561925, -6.861412, 0.0 ], [ 107.561929, -6.861423, 0.0 ], [ 107.561961, -6.861509, 0.0 ], [ 107.561969, -6.861531, 0.0 ], [ 107.561969, -6.861532, 0.0 ], [ 107.561965, -6.861555, 0.0 ], [ 107.561962, -6.861573, 0.0 ], [ 107.561954, -6.861621, 0.0 ], [ 107.561897, -6.86167, 0.0 ], [ 107.561809, -6.861662, 0.0 ], [ 107.561753, -6.861657, 0.0 ], [ 107.561754, -6.861658, 0.0 ], [ 107.561754, -6.86166, 0.0 ], [ 107.561801, -6.861757, 0.0 ], [ 107.561807, -6.861763, 0.0 ], [ 107.561859, -6.861819, 0.0 ], [ 107.561974, -6.861894, 0.0 ], [ 107.562323, -6.862175, 0.0 ], [ 107.562546, -6.862341, 0.0 ], [ 107.562775, -6.86249, 0.0 ], [ 107.56301, -6.862636, 0.0 ], [ 107.563349, -6.862849, 0.0 ], [ 107.563598, -6.863005, 0.0 ], [ 107.56347, -6.863201, 0.0 ], [ 107.563432, -6.863258, 0.0 ], [ 107.563426, -6.863268, 0.0 ], [ 107.563299, -6.863462, 0.0 ], [ 107.563093, -6.863778, 0.0 ], [ 107.563005, -6.863912, 0.0 ], [ 107.562881, -6.864102, 0.0 ], [ 107.562779, -6.864264, 0.0 ], [ 107.562732, -6.864347, 0.0 ], [ 107.56266, -6.864475, 0.0 ], [ 107.562493, -6.864706, 0.0 ], [ 107.562525, -6.864724, 0.0 ], [ 107.562532, -6.864728, 0.0 ], [ 107.562571, -6.864752, 0.0 ], [ 107.562673, -6.864807, 0.0 ], [ 107.562698, -6.864864, 0.0 ], [ 107.562729, -6.864889, 0.0 ], [ 107.562777, -6.864914, 0.0 ], [ 107.562832, -6.864963, 0.0 ], [ 107.562843, -6.864951, 0.0 ], [ 107.562881, -6.864982, 0.0 ], [ 107.562873, -6.864996, 0.0 ], [ 107.562868, -6.865003, 0.0 ], [ 107.562885, -6.865018, 0.0 ], [ 107.563052, -6.865163, 0.0 ], [ 107.563107, -6.865205, 0.0 ], [ 107.563184, -6.865265, 0.0 ], [ 107.563193, -6.865256, 0.0 ], [ 107.563285, -6.86533, 0.0 ], [ 107.563289, -6.865336, 0.0 ], [ 107.563295, -6.865347, 0.0 ], [ 107.563296, -6.865346, 0.0 ], [ 107.563318, -6.865317, 0.0 ], [ 107.563474, -6.865448, 0.0 ], [ 107.563563, -6.86552, 0.0 ], [ 107.563819, -6.865702, 0.0 ], [ 107.563868, -6.865701, 0.0 ], [ 107.563913, -6.865756, 0.0 ], [ 107.563929, -6.865805, 0.0 ], [ 107.563939, -6.865841, 0.0 ], [ 107.563957, -6.865913, 0.0 ], [ 107.563995, -6.86596, 0.0 ], [ 107.564034, -6.865996, 0.0 ], [ 107.564037, -6.865993, 0.0 ], [ 107.564206, -6.865738, 0.0 ], [ 107.564306, -6.865803, 0.0 ], [ 107.564306, -6.865803, 0.0 ], [ 107.564499, -6.865535, 0.0 ], [ 107.564664, -6.865327, 0.0 ], [ 107.564772, -6.865168, 0.0 ], [ 107.564932, -6.864928, 0.0 ], [ 107.564921, -6.864903, 0.0 ], [ 107.565062, -6.864702, 0.0 ], [ 107.565216, -6.864792, 0.0 ], [ 107.565253, -6.864811, 0.0 ], [ 107.565322, -6.864868, 0.0 ], [ 107.565527, -6.864984, 0.0 ], [ 107.565555, -6.865, 0.0 ], [ 107.565571, -6.865009, 0.0 ], [ 107.565741, -6.865105, 0.0 ], [ 107.565759, -6.865115, 0.0 ], [ 107.565806, -6.865141, 0.0 ], [ 107.565773, -6.865256, 0.0 ], [ 107.565801, -6.865491, 0.0 ], [ 107.565812, -6.865578, 0.0 ], [ 107.565824, -6.865672, 0.0 ], [ 107.565822, -6.865696, 0.0 ], [ 107.565819, -6.865753, 0.0 ], [ 107.565818, -6.865771, 0.0 ], [ 107.565816, -6.865794, 0.0 ], [ 107.565763, -6.865896, 0.0 ], [ 107.565745, -6.86593, 0.0 ], [ 107.565685, -6.865975, 0.0 ], [ 107.56568, -6.865978, 0.0 ], [ 107.565646, -6.866004, 0.0 ], [ 107.565571, -6.866059, 0.0 ], [ 107.56546, -6.86619, 0.0 ], [ 107.565289, -6.866391, 0.0 ], [ 107.565244, -6.866444, 0.0 ], [ 107.565228, -6.866463, 0.0 ], [ 107.565127, -6.866565, 0.0 ], [ 107.565045, -6.866647, 0.0 ], [ 107.565043, -6.866649, 0.0 ], [ 107.564995, -6.866692, 0.0 ], [ 107.564985, -6.866702, 0.0 ], [ 107.564891, -6.866786, 0.0 ], [ 107.564714, -6.866916, 0.0 ], [ 107.564689, -6.866935, 0.0 ], [ 107.56456, -6.867032, 0.0 ], [ 107.564508, -6.86711, 0.0 ], [ 107.56447, -6.867166, 0.0 ], [ 107.564439, -6.867214, 0.0 ], [ 107.564438, -6.867215, 0.0 ], [ 107.564263, -6.867318, 0.0 ], [ 107.564196, -6.867339, 0.0 ], [ 107.56416, -6.86735, 0.0 ], [ 107.564142, -6.86741, 0.0 ], [ 107.564115, -6.867497, 0.0 ], [ 107.564107, -6.867516, 0.0 ], [ 107.564058, -6.867623, 0.0 ], [ 107.563911, -6.867775, 0.0 ], [ 107.563908, -6.867777, 0.0 ], [ 107.563766, -6.867867, 0.0 ], [ 107.56363, -6.867888, 0.0 ], [ 107.56363, -6.867888, 0.0 ], [ 107.563485, -6.86789, 0.0 ], [ 107.563465, -6.867898, 0.0 ], [ 107.563379, -6.867935, 0.0 ], [ 107.563376, -6.86794, 0.0 ], [ 107.563294, -6.868064, 0.0 ], [ 107.563228, -6.868323, 0.0 ], [ 107.563175, -6.868516, 0.0 ], [ 107.563173, -6.868523, 0.0 ], [ 107.563169, -6.868537, 0.0 ], [ 107.56315, -6.868567, 0.0 ], [ 107.563147, -6.868572, 0.0 ], [ 107.563103, -6.868644, 0.0 ], [ 107.563101, -6.868647, 0.0 ], [ 107.563022, -6.868685, 0.0 ], [ 107.562971, -6.868698, 0.0 ], [ 107.562938, -6.868707, 0.0 ], [ 107.562879, -6.868771, 0.0 ], [ 107.562858, -6.868793, 0.0 ], [ 107.562855, -6.868802, 0.0 ], [ 107.562815, -6.86891, 0.0 ], [ 107.562815, -6.868911, 0.0 ], [ 107.562824, -6.868952, 0.0 ], [ 107.562855, -6.869091, 0.0 ], [ 107.562876, -6.869136, 0.0 ], [ 107.562908, -6.869201, 0.0 ], [ 107.56293, -6.869254, 0.0 ], [ 107.562947, -6.869295, 0.0 ], [ 107.562961, -6.869328, 0.0 ], [ 107.562999, -6.869358, 0.0 ], [ 107.562999, -6.869447, 0.0 ], [ 107.562934, -6.869537, 0.0 ], [ 107.562836, -6.869675, 0.0 ], [ 107.562717, -6.869849, 0.0 ], [ 107.56261, -6.869996, 0.0 ], [ 107.562578, -6.870041, 0.0 ], [ 107.562578, -6.870041, 0.0 ], [ 107.562466, -6.870191, 0.0 ], [ 107.562414, -6.870308, 0.0 ], [ 107.562362, -6.870466, 0.0 ], [ 107.562337, -6.870564, 0.0 ], [ 107.562332, -6.870605, 0.0 ], [ 107.562319, -6.870688, 0.0 ], [ 107.562271, -6.870775, 0.0 ], [ 107.562018, -6.870856, 0.0 ], [ 107.562, -6.870915, 0.0 ], [ 107.561981, -6.870977, 0.0 ], [ 107.562005, -6.871106, 0.0 ], [ 107.562091, -6.871555, 0.0 ], [ 107.562105, -6.871632, 0.0 ], [ 107.562106, -6.871666, 0.0 ], [ 107.562107, -6.871708, 0.0 ], [ 107.562108, -6.87175, 0.0 ], [ 107.562087, -6.871909, 0.0 ], [ 107.562082, -6.871946, 0.0 ], [ 107.562079, -6.871971, 0.0 ], [ 107.562074, -6.87202, 0.0 ], [ 107.56205, -6.872034, 0.0 ], [ 107.562049, -6.872034, 0.0 ], [ 107.562044, -6.872037, 0.0 ], [ 107.562026, -6.872047, 0.0 ], [ 107.561898, -6.872016, 0.0 ], [ 107.561891, -6.872014, 0.0 ], [ 107.561868, -6.872008, 0.0 ], [ 107.561817, -6.871996, 0.0 ], [ 107.561813, -6.871995, 0.0 ], [ 107.5617, -6.871967, 0.0 ], [ 107.561694, -6.871995, 0.0 ], [ 107.561678, -6.872071, 0.0 ], [ 107.561664, -6.872133, 0.0 ], [ 107.561663, -6.872139, 0.0 ], [ 107.561663, -6.872158, 0.0 ], [ 107.561665, -6.872208, 0.0 ], [ 107.561667, -6.872311, 0.0 ], [ 107.56169, -6.872384, 0.0 ], [ 107.561524, -6.87272, 0.0 ], [ 107.56143, -6.872879, 0.0 ], [ 107.561305, -6.8731, 0.0 ], [ 107.561084, -6.873133, 0.0 ], [ 107.560736, -6.87304, 0.0 ], [ 107.560483, -6.872947, 0.0 ], [ 107.560166, -6.872822, 0.0 ], [ 107.560007, -6.872634, 0.0 ], [ 107.559722, -6.872414, 0.0 ], [ 107.559499, -6.872226, 0.0 ], [ 107.559245, -6.871912, 0.0 ], [ 107.559117, -6.871597, 0.0 ], [ 107.558958, -6.871408, 0.0 ], [ 107.558767, -6.871125, 0.0 ], [ 107.558418, -6.870843, 0.0 ], [ 107.558132, -6.870592, 0.0 ], [ 107.557847, -6.870341, 0.0 ], [ 107.557593, -6.870216, 0.0 ], [ 107.557435, -6.870027, 0.0 ], [ 107.557307, -6.869712, 0.0 ], [ 107.557085, -6.86965, 0.0 ], [ 107.556989, -6.869461, 0.0 ], [ 107.556987, -6.869114, 0.0 ], [ 107.557176, -6.868955, 0.0 ], [ 107.557491, -6.868827, 0.0 ], [ 107.557838, -6.868699, 0.0 ], [ 107.558089, -6.86835, 0.0 ], [ 107.558307, -6.867781, 0.0 ], [ 107.558368, -6.867339, 0.0 ], [ 107.558588, -6.867085, 0.0 ], [ 107.558808, -6.866989, 0.0 ], [ 107.558997, -6.866862, 0.0 ], [ 107.559249, -6.866671, 0.0 ], [ 107.559247, -6.866387, 0.0 ], [ 107.55915, -6.866009, 0.0 ], [ 107.55918, -6.86563, 0.0 ], [ 107.559462, -6.865249, 0.0 ], [ 107.55962, -6.865154, 0.0 ], [ 107.559775, -6.864774, 0.0 ], [ 107.559965, -6.864742, 0.0 ], [ 107.560375, -6.864739, 0.0 ], [ 107.56088, -6.864642, 0.0 ], [ 107.561132, -6.86442, 0.0 ], [ 107.561255, -6.863914, 0.0 ], [ 107.561, -6.863721, 0.0 ], [ 107.560716, -6.863506, 0.0 ], [ 107.560496, -6.863665, 0.0 ], [ 107.55996, -6.863889, 0.0 ], [ 107.559613, -6.863986, 0.0 ], [ 107.558763, -6.864401, 0.0 ], [ 107.558449, -6.864718, 0.0 ], [ 107.558197, -6.865004, 0.0 ], [ 107.557915, -6.865415, 0.0 ], [ 107.557474, -6.865607, 0.0 ], [ 107.55716, -6.865861, 0.0 ], [ 107.556845, -6.866179, 0.0 ], [ 107.556753, -6.866684, 0.0 ], [ 107.556597, -6.867001, 0.0 ], [ 107.556282, -6.86716, 0.0 ], [ 107.555809, -6.867289, 0.0 ], [ 107.555493, -6.867354, 0.0 ], [ 107.554956, -6.867199, 0.0 ], [ 107.554764, -6.866884, 0.0 ], [ 107.55451, -6.866602, 0.0 ], [ 107.554099, -6.866446, 0.0 ], [ 107.553782, -6.866195, 0.0 ], [ 107.553527, -6.865818, 0.0 ], [ 107.553304, -6.865503, 0.0 ], [ 107.553557, -6.86547, 0.0 ], [ 107.553556, -6.865281, 0.0 ], [ 107.553397, -6.865092, 0.0 ], [ 107.553458, -6.864776, 0.0 ], [ 107.553615, -6.864554, 0.0 ], [ 107.553896, -6.864048, 0.0 ], [ 107.553802, -6.864017, 0.0 ], [ 107.55355, -6.864208, 0.0 ], [ 107.553299, -6.864493, 0.0 ], [ 107.553141, -6.864525, 0.0 ], [ 107.552951, -6.864495, 0.0 ], [ 107.552855, -6.864211, 0.0 ], [ 107.552853, -6.863927, 0.0 ], [ 107.552317, -6.864088, 0.0 ], [ 107.552066, -6.86431, 0.0 ], [ 107.551687, -6.864375, 0.0 ], [ 107.551403, -6.864377, 0.0 ], [ 107.550959, -6.864158, 0.0 ], [ 107.550579, -6.863908, 0.0 ], [ 107.55004, -6.863437, 0.0 ], [ 107.549186, -6.863252, 0.0 ], [ 107.548774, -6.86297, 0.0 ], [ 107.548457, -6.862814, 0.0 ], [ 107.547919, -6.862564, 0.0 ], [ 107.547791, -6.862344, 0.0 ], [ 107.547694, -6.861997, 0.0 ], [ 107.54763, -6.861714, 0.0 ], [ 107.547628, -6.861398, 0.0 ], [ 107.547722, -6.861176, 0.0 ], [ 107.547847, -6.860986, 0.0 ], [ 107.547909, -6.860765, 0.0 ], [ 107.547876, -6.860576, 0.0 ], [ 107.547685, -6.860261, 0.0 ], [ 107.547399, -6.859884, 0.0 ], [ 107.54724, -6.859727, 0.0 ], [ 107.547298, -6.859217, 0.0 ], [ 107.54741, -6.859028, 0.0 ], [ 107.547371, -6.858803, 0.0 ], [ 107.547182, -6.858654, 0.0 ], [ 107.547369, -6.858353, 0.0 ], [ 107.547518, -6.858239, 0.0 ], [ 107.547668, -6.858163, 0.0 ], [ 107.547893, -6.858087, 0.0 ], [ 107.548043, -6.858049, 0.0 ], [ 107.548343, -6.85786, 0.0 ], [ 107.548266, -6.857635, 0.0 ], [ 107.54804, -6.857411, 0.0 ], [ 107.548328, -6.857024, 0.0 ], [ 107.548522, -6.856795, 0.0 ], [ 107.548782, -6.856566, 0.0 ], [ 107.549335, -6.856204, 0.0 ], [ 107.549202, -6.855879, 0.0 ], [ 107.54881, -6.85575, 0.0 ], [ 107.548517, -6.855752, 0.0 ], [ 107.54834, -6.856049, 0.0 ], [ 107.548226, -6.856242, 0.0 ], [ 107.547902, -6.856766, 0.0 ], [ 107.547414, -6.856866, 0.0 ], [ 107.547121, -6.857096, 0.0 ], [ 107.546927, -6.857325, 0.0 ], [ 107.546405, -6.857361, 0.0 ], [ 107.546111, -6.857329, 0.0 ], [ 107.545719, -6.857169, 0.0 ], [ 107.545327, -6.857105, 0.0 ], [ 107.54513, -6.856715, 0.0 ], [ 107.545128, -6.856455, 0.0 ], [ 107.545029, -6.856162, 0.0 ], [ 107.545092, -6.855835, 0.0 ], [ 107.544993, -6.855575, 0.0 ], [ 107.544796, -6.855348, 0.0 ], [ 107.544436, -6.855056, 0.0 ], [ 107.544206, -6.854829, 0.0 ], [ 107.543815, -6.854766, 0.0 ], [ 107.543487, -6.85454, 0.0 ], [ 107.543193, -6.854411, 0.0 ], [ 107.543063, -6.854412, 0.0 ], [ 107.542605, -6.854153, 0.0 ], [ 107.54313, -6.854803, 0.0 ], [ 107.543327, -6.855095, 0.0 ], [ 107.542904, -6.855293, 0.0 ], [ 107.542414, -6.855165, 0.0 ], [ 107.542185, -6.854938, 0.0 ], [ 107.541988, -6.854711, 0.0 ], [ 107.541921, -6.854385, 0.0 ], [ 107.541756, -6.854125, 0.0 ], [ 107.541592, -6.853833, 0.0 ], [ 107.541395, -6.853606, 0.0 ], [ 107.541133, -6.853444, 0.0 ], [ 107.540871, -6.853152, 0.0 ], [ 107.54074, -6.853055, 0.0 ], [ 107.540933, -6.852663, 0.0 ], [ 107.540834, -6.852435, 0.0 ], [ 107.540541, -6.852437, 0.0 ], [ 107.540054, -6.852928, 0.0 ], [ 107.539827, -6.85319, 0.0 ], [ 107.539502, -6.853355, 0.0 ], [ 107.538946, -6.853162, 0.0 ], [ 107.538554, -6.852969, 0.0 ], [ 107.537966, -6.852744, 0.0 ], [ 107.537606, -6.85268, 0.0 ], [ 107.53757, -6.852028, 0.0 ], [ 107.53734, -6.851704, 0.0 ], [ 107.536555, -6.851284, 0.0 ], [ 107.535964, -6.851069, 0.0 ], [ 107.535985, -6.851038, 0.0 ], [ 107.535986, -6.851036, 0.0 ], [ 107.53604, -6.850958, 0.0 ], [ 107.53606, -6.850878, 0.0 ], [ 107.53607, -6.850839, 0.0 ], [ 107.536083, -6.850787, 0.0 ], [ 107.536154, -6.850506, 0.0 ], [ 107.536154, -6.850506, 0.0 ], [ 107.536154, -6.850505, 0.0 ], [ 107.536145, -6.850346, 0.0 ], [ 107.536145, -6.850345, 0.0 ], [ 107.536176, -6.850274, 0.0 ], [ 107.536205, -6.850205, 0.0 ], [ 107.536277, -6.850153, 0.0 ], [ 107.536304, -6.850134, 0.0 ], [ 107.536415, -6.850136, 0.0 ], [ 107.536649, -6.850132, 0.0 ], [ 107.536661, -6.850116, 0.0 ], [ 107.536708, -6.850055, 0.0 ], [ 107.536734, -6.849915, 0.0 ], [ 107.536737, -6.849906, 0.0 ], [ 107.536767, -6.849826, 0.0 ], [ 107.536821, -6.849757, 0.0 ], [ 107.537011, -6.849516, 0.0 ], [ 107.537138, -6.849447, 0.0 ], [ 107.537234, -6.849395, 0.0 ], [ 107.53729, -6.849364, 0.0 ], [ 107.537499, -6.849133, 0.0 ], [ 107.53752, -6.84911, 0.0 ], [ 107.537508, -6.849074, 0.0 ], [ 107.537493, -6.849026, 0.0 ], [ 107.537486, -6.849006, 0.0 ], [ 107.537467, -6.848947, 0.0 ], [ 107.537454, -6.848844, 0.0 ], [ 107.537455, -6.848844, 0.0 ], [ 107.537454, -6.848844, 0.0 ], [ 107.53732, -6.848805, 0.0 ], [ 107.537251, -6.848782, 0.0 ], [ 107.537205, -6.848767, 0.0 ], [ 107.537073, -6.848723, 0.0 ], [ 107.537054, -6.848717, 0.0 ], [ 107.536685, -6.848548, 0.0 ], [ 107.536246, -6.848387, 0.0 ], [ 107.536164, -6.848357, 0.0 ], [ 107.536167, -6.84835, 0.0 ], [ 107.536196, -6.848293, 0.0 ], [ 107.536207, -6.848272, 0.0 ], [ 107.5363, -6.84809, 0.0 ], [ 107.536522, -6.847671, 0.0 ], [ 107.536475, -6.847639, 0.0 ], [ 107.535799, -6.847175, 0.0 ], [ 107.535497, -6.847064, 0.0 ], [ 107.535372, -6.847006, 0.0 ], [ 107.535209, -6.846926, 0.0 ], [ 107.534904, -6.846829, 0.0 ], [ 107.534804, -6.846791, 0.0 ], [ 107.53471, -6.846744, 0.0 ], [ 107.534739, -6.846704, 0.0 ], [ 107.53485, -6.846553, 0.0 ], [ 107.534884, -6.846507, 0.0 ], [ 107.534914, -6.846467, 0.0 ], [ 107.534929, -6.846446, 0.0 ], [ 107.53493, -6.846445, 0.0 ], [ 107.534937, -6.846439, 0.0 ], [ 107.535066, -6.846323, 0.0 ], [ 107.535107, -6.846253, 0.0 ], [ 107.535121, -6.846231, 0.0 ], [ 107.535122, -6.84623, 0.0 ], [ 107.535143, -6.846194, 0.0 ], [ 107.535188, -6.84612, 0.0 ], [ 107.535249, -6.845929, 0.0 ], [ 107.535294, -6.845791, 0.0 ], [ 107.535309, -6.845743, 0.0 ], [ 107.535338, -6.845685, 0.0 ], [ 107.535366, -6.845628, 0.0 ], [ 107.535388, -6.8456, 0.0 ], [ 107.535753, -6.845117, 0.0 ], [ 107.536112, -6.844699, 0.0 ], [ 107.53623, -6.844563, 0.0 ], [ 107.536237, -6.844561, 0.0 ], [ 107.53647, -6.844491, 0.0 ], [ 107.536524, -6.844474, 0.0 ], [ 107.536582, -6.844355, 0.0 ], [ 107.536618, -6.844296, 0.0 ], [ 107.536697, -6.844167, 0.0 ], [ 107.536716, -6.844142, 0.0 ], [ 107.537023, -6.843764, 0.0 ], [ 107.537038, -6.843745, 0.0 ], [ 107.537053, -6.843722, 0.0 ], [ 107.537148, -6.843577, 0.0 ], [ 107.537195, -6.843484, 0.0 ], [ 107.537209, -6.843455, 0.0 ], [ 107.537213, -6.843448, 0.0 ], [ 107.53722, -6.843433, 0.0 ], [ 107.537286, -6.843301, 0.0 ], [ 107.537275, -6.843201, 0.0 ], [ 107.537271, -6.843186, 0.0 ], [ 107.537202, -6.842908, 0.0 ], [ 107.537203, -6.842905, 0.0 ], [ 107.537227, -6.842732, 0.0 ], [ 107.537256, -6.842554, 0.0 ], [ 107.537277, -6.842427, 0.0 ], [ 107.537282, -6.8424, 0.0 ], [ 107.537317, -6.842185, 0.0 ], [ 107.537353, -6.841894, 0.0 ], [ 107.537363, -6.84181, 0.0 ], [ 107.537375, -6.841719, 0.0 ], [ 107.5374, -6.841594, 0.0 ], [ 107.537414, -6.841525, 0.0 ], [ 107.537423, -6.841478, 0.0 ], [ 107.53746, -6.841298, 0.0 ], [ 107.537446, -6.841209, 0.0 ], [ 107.537445, -6.841204, 0.0 ], [ 107.537429, -6.841101, 0.0 ], [ 107.537397, -6.84098, 0.0 ], [ 107.537369, -6.840879, 0.0 ], [ 107.537367, -6.840664, 0.0 ], [ 107.537366, -6.840557, 0.0 ], [ 107.537365, -6.840406, 0.0 ], [ 107.537369, -6.840347, 0.0 ], [ 107.53738, -6.840281, 0.0 ], [ 107.537381, -6.840278, 0.0 ], [ 107.537632, -6.839686, 0.0 ], [ 107.537656, -6.839632, 0.0 ], [ 107.537671, -6.839604, 0.0 ], [ 107.537726, -6.839506, 0.0 ], [ 107.537777, -6.839415, 0.0 ], [ 107.537904, -6.839193, 0.0 ], [ 107.538231, -6.838514, 0.0 ], [ 107.53825, -6.838487, 0.0 ], [ 107.538251, -6.838486, 0.0 ], [ 107.538286, -6.838438, 0.0 ], [ 107.538493, -6.838172, 0.0 ], [ 107.538549, -6.838076, 0.0 ], [ 107.538552, -6.83807, 0.0 ], [ 107.538559, -6.838059, 0.0 ], [ 107.538623, -6.837861, 0.0 ], [ 107.538691, -6.837653, 0.0 ], [ 107.538694, -6.837644, 0.0 ], [ 107.538696, -6.83764, 0.0 ], [ 107.5387, -6.837626, 0.0 ], [ 107.5387, -6.837616, 0.0 ], [ 107.538702, -6.837522, 0.0 ], [ 107.538706, -6.837235, 0.0 ], [ 107.53877, -6.836977, 0.0 ], [ 107.538915, -6.836488, 0.0 ], [ 107.538946, -6.836383, 0.0 ], [ 107.538971, -6.836297, 0.0 ], [ 107.538989, -6.836195, 0.0 ], [ 107.538989, -6.836193, 0.0 ], [ 107.538974, -6.836147, 0.0 ], [ 107.538951, -6.836077, 0.0 ], [ 107.538943, -6.835988, 0.0 ], [ 107.538961, -6.835462, 0.0 ], [ 107.538962, -6.835282, 0.0 ], [ 107.538959, -6.835009, 0.0 ], [ 107.538993, -6.834813, 0.0 ], [ 107.539016, -6.834675, 0.0 ], [ 107.539026, -6.83462, 0.0 ], [ 107.539044, -6.834513, 0.0 ], [ 107.539068, -6.834453, 0.0 ], [ 107.539096, -6.834406, 0.0 ], [ 107.539105, -6.834391, 0.0 ], [ 107.539181, -6.834261, 0.0 ], [ 107.539364, -6.834058, 0.0 ], [ 107.539591, -6.833791, 0.0 ], [ 107.539616, -6.833709, 0.0 ], [ 107.53965, -6.833598, 0.0 ], [ 107.539647, -6.833429, 0.0 ], [ 107.539643, -6.833408, 0.0 ], [ 107.539637, -6.833382, 0.0 ], [ 107.539637, -6.833378, 0.0 ], [ 107.539637, -6.833359, 0.0 ], [ 107.539637, -6.833236, 0.0 ], [ 107.539637, -6.833234, 0.0 ], [ 107.539649, -6.833108, 0.0 ], [ 107.539649, -6.833067, 0.0 ], [ 107.539649, -6.833059, 0.0 ], [ 107.539648, -6.832946, 0.0 ], [ 107.539644, -6.832894, 0.0 ], [ 107.539644, -6.832889, 0.0 ], [ 107.539644, -6.832884, 0.0 ], [ 107.539639, -6.832824, 0.0 ], [ 107.539622, -6.832795, 0.0 ], [ 107.539621, -6.832793, 0.0 ], [ 107.539579, -6.832746, 0.0 ], [ 107.539486, -6.832641, 0.0 ], [ 107.539471, -6.832603, 0.0 ], [ 107.53947, -6.832599, 0.0 ], [ 107.539455, -6.832562, 0.0 ], [ 107.539484, -6.8324, 0.0 ], [ 107.539503, -6.832344, 0.0 ], [ 107.539539, -6.832234, 0.0 ], [ 107.539553, -6.832194, 0.0 ], [ 107.539558, -6.832178, 0.0 ], [ 107.539558, -6.832177, 0.0 ], [ 107.539568, -6.83214, 0.0 ], [ 107.539573, -6.832125, 0.0 ], [ 107.539599, -6.83205, 0.0 ], [ 107.539655, -6.832054, 0.0 ], [ 107.539661, -6.832055, 0.0 ], [ 107.539994, -6.832139, 0.0 ], [ 107.540086, -6.832145, 0.0 ], [ 107.540219, -6.832154, 0.0 ], [ 107.540244, -6.832156, 0.0 ], [ 107.540413, -6.832168, 0.0 ], [ 107.540448, -6.832169, 0.0 ], [ 107.540466, -6.832169, 0.0 ], [ 107.540722, -6.832164, 0.0 ], [ 107.54081, -6.832157, 0.0 ], [ 107.540931, -6.832149, 0.0 ], [ 107.541059, -6.832127, 0.0 ], [ 107.541108, -6.832102, 0.0 ], [ 107.541251, -6.832027, 0.0 ], [ 107.541432, -6.83219, 0.0 ], [ 107.541437, -6.832194, 0.0 ], [ 107.54147, -6.832216, 0.0 ], [ 107.541579, -6.832274, 0.0 ], [ 107.54178, -6.832318, 0.0 ], [ 107.541954, -6.832113, 0.0 ], [ 107.542061, -6.83198, 0.0 ], [ 107.542268, -6.832074, 0.0 ], [ 107.542379, -6.832151, 0.0 ], [ 107.542616, -6.832279, 0.0 ], [ 107.542786, -6.832358, 0.0 ], [ 107.543035, -6.832432, 0.0 ], [ 107.543167, -6.832491, 0.0 ], [ 107.543388, -6.832487, 0.0 ], [ 107.543433, -6.832406, 0.0 ], [ 107.543516, -6.832262, 0.0 ], [ 107.543574, -6.832028, 0.0 ], [ 107.543623, -6.831883, 0.0 ], [ 107.543692, -6.831744, 0.0 ], [ 107.543756, -6.83159, 0.0 ], [ 107.543793, -6.831459, 0.0 ], [ 107.543838, -6.831346, 0.0 ], [ 107.543873, -6.831193, 0.0 ], [ 107.54394, -6.831059, 0.0 ], [ 107.544001, -6.83096, 0.0 ], [ 107.544144, -6.830838, 0.0 ], [ 107.544228, -6.830785, 0.0 ], [ 107.544325, -6.830722, 0.0 ], [ 107.544392, -6.830731, 0.0 ], [ 107.544399, -6.830739, 0.0 ], [ 107.544416, -6.830762, 0.0 ], [ 107.544417, -6.830762, 0.0 ], [ 107.544532, -6.830835, 0.0 ], [ 107.544625, -6.830894, 0.0 ], [ 107.544671, -6.830854, 0.0 ], [ 107.544712, -6.830743, 0.0 ], [ 107.544741, -6.830664, 0.0 ], [ 107.544774, -6.830603, 0.0 ], [ 107.544784, -6.830585, 0.0 ], [ 107.544798, -6.830568, 0.0 ], [ 107.544841, -6.830518, 0.0 ], [ 107.544863, -6.8305, 0.0 ], [ 107.544886, -6.830481, 0.0 ], [ 107.544904, -6.830492, 0.0 ], [ 107.54491, -6.830495, 0.0 ], [ 107.54493, -6.830507, 0.0 ], [ 107.544973, -6.830527, 0.0 ], [ 107.545034, -6.830551, 0.0 ], [ 107.545097, -6.830573, 0.0 ], [ 107.545179, -6.830617, 0.0 ], [ 107.545225, -6.830637, 0.0 ], [ 107.545277, -6.830656, 0.0 ], [ 107.545311, -6.830654, 0.0 ], [ 107.545354, -6.830631, 0.0 ], [ 107.545411, -6.830563, 0.0 ], [ 107.545494, -6.830405, 0.0 ], [ 107.545525, -6.830306, 0.0 ], [ 107.545539, -6.830248, 0.0 ], [ 107.545558, -6.830188, 0.0 ], [ 107.545559, -6.830123, 0.0 ], [ 107.545759, -6.82983, 0.0 ], [ 107.54584, -6.82963, 0.0 ], [ 107.545856, -6.829602, 0.0 ], [ 107.546385, -6.829773, 0.0 ], [ 107.546683, -6.8299, 0.0 ], [ 107.546692, -6.829903, 0.0 ], [ 107.546702, -6.829882, 0.0 ], [ 107.546764, -6.829762, 0.0 ], [ 107.546792, -6.829627, 0.0 ], [ 107.546818, -6.829502, 0.0 ], [ 107.546842, -6.829388, 0.0 ], [ 107.546851, -6.829346, 0.0 ], [ 107.546805, -6.829105, 0.0 ], [ 107.546762, -6.828885, 0.0 ], [ 107.546744, -6.828787, 0.0 ], [ 107.546702, -6.82856, 0.0 ], [ 107.546726, -6.828451, 0.0 ], [ 107.54673, -6.828433, 0.0 ], [ 107.54677, -6.828361, 0.0 ], [ 107.546864, -6.828189, 0.0 ], [ 107.546926, -6.828079, 0.0 ], [ 107.546951, -6.828035, 0.0 ], [ 107.546978, -6.827855, 0.0 ], [ 107.54698, -6.827845, 0.0 ], [ 107.546975, -6.827779, 0.0 ], [ 107.546965, -6.827635, 0.0 ], [ 107.546953, -6.827465, 0.0 ], [ 107.546913, -6.827389, 0.0 ], [ 107.546907, -6.827377, 0.0 ], [ 107.546939, -6.82737, 0.0 ], [ 107.547028, -6.827352, 0.0 ], [ 107.547077, -6.827352, 0.0 ], [ 107.547109, -6.827365, 0.0 ], [ 107.547169, -6.827403, 0.0 ], [ 107.547197, -6.827433, 0.0 ], [ 107.547259, -6.827503, 0.0 ], [ 107.547259, -6.827505, 0.0 ], [ 107.547281, -6.827552, 0.0 ], [ 107.547327, -6.827642, 0.0 ], [ 107.547353, -6.827737, 0.0 ], [ 107.547371, -6.827791, 0.0 ], [ 107.547406, -6.827857, 0.0 ], [ 107.547429, -6.827924, 0.0 ], [ 107.547454, -6.827956, 0.0 ], [ 107.547459, -6.827964, 0.0 ], [ 107.547462, -6.827967, 0.0 ], [ 107.547485, -6.827993, 0.0 ], [ 107.547534, -6.828021, 0.0 ], [ 107.547587, -6.828044, 0.0 ], [ 107.547592, -6.828052, 0.0 ], [ 107.547622, -6.828099, 0.0 ], [ 107.547621, -6.828124, 0.0 ], [ 107.547637, -6.828165, 0.0 ], [ 107.547663, -6.828202, 0.0 ], [ 107.547665, -6.828204, 0.0 ], [ 107.547706, -6.828238, 0.0 ], [ 107.547767, -6.828274, 0.0 ], [ 107.547814, -6.828299, 0.0 ], [ 107.547881, -6.828321, 0.0 ], [ 107.547936, -6.828357, 0.0 ] ] ] ] } },
{ "type": "Feature", "properties": { "NAMOBJ": "Pertumbuhan Ekonomi", "WADMPR": "Provinsi Jawa Barat", "WADMKK": "Kota Cimahi", "SDTPTG": 1, "REMARK": "Kawasan perdagangan dan jasa Pusat Kota Alun-Alun Kota Cimahi", "SBDATA": "Analisis RTRW Kota Cimahi Perda No 4 Tahun 2012 - 2032", "SHAPE_Length": 0.050129288950546157, "SHAPE_Area": 0.0001097283927550822 }, "geometry": { "type": "MultiPolygon", "coordinates": [ [ [ [ 107.547029, -6.867451, 0.0 ], [ 107.547741, -6.867958, 0.0 ], [ 107.548473, -6.868429, 0.0 ], [ 107.549354, -6.869141, 0.0 ], [ 107.549825, -6.869627, 0.0 ], [ 107.550678, -6.870127, 0.0 ], [ 107.550557, -6.870301, 0.0 ], [ 107.550447, -6.870535, 0.0 ], [ 107.550362, -6.870784, 0.0 ], [ 107.550326, -6.870898, 0.0 ], [ 107.550256, -6.871104, 0.0 ], [ 107.550211, -6.871176, 0.0 ], [ 107.550082, -6.871266, 0.0 ], [ 107.55007, -6.871275, 0.0 ], [ 107.550028, -6.871269, 0.0 ], [ 107.549592, -6.871292, 0.0 ], [ 107.549464, -6.871274, 0.0 ], [ 107.549309, -6.871293, 0.0 ], [ 107.549169, -6.87138, 0.0 ], [ 107.548984, -6.871561, 0.0 ], [ 107.548821, -6.871813, 0.0 ], [ 107.548785, -6.87188, 0.0 ], [ 107.548766, -6.871864, 0.0 ], [ 107.548592, -6.872156, 0.0 ], [ 107.548376, -6.872439, 0.0 ], [ 107.547916, -6.873055, 0.0 ], [ 107.547722, -6.873175, 0.0 ], [ 107.547478, -6.873003, 0.0 ], [ 107.547374, -6.873258, 0.0 ], [ 107.547189, -6.873604, 0.0 ], [ 107.547005, -6.873916, 0.0 ], [ 107.546828, -6.874074, 0.0 ], [ 107.546761, -6.874126, 0.0 ], [ 107.546633, -6.874255, 0.0 ], [ 107.546509, -6.874376, 0.0 ], [ 107.546444, -6.874467, 0.0 ], [ 107.546408, -6.874547, 0.0 ], [ 107.546366, -6.874702, 0.0 ], [ 107.546379, -6.874756, 0.0 ], [ 107.546434, -6.874866, 0.0 ], [ 107.546435, -6.875003, 0.0 ], [ 107.546316, -6.875204, 0.0 ], [ 107.54616, -6.875416, 0.0 ], [ 107.545902, -6.875775, 0.0 ], [ 107.545854, -6.875848, 0.0 ], [ 107.54589, -6.87587, 0.0 ], [ 107.546073, -6.875983, 0.0 ], [ 107.543929, -6.879291, 0.0 ], [ 107.543283, -6.880289, 0.0 ], [ 107.543225, -6.880547, 0.0 ], [ 107.54019, -6.879358, 0.0 ], [ 107.539895, -6.879242, 0.0 ], [ 107.539742, -6.879207, 0.0 ], [ 107.539019, -6.879042, 0.0 ], [ 107.539044, -6.878818, 0.0 ], [ 107.539167, -6.877704, 0.0 ], [ 107.538593, -6.877425, 0.0 ], [ 107.538503, -6.877381, 0.0 ], [ 107.537911, -6.877094, 0.0 ], [ 107.536468, -6.876392, 0.0 ], [ 107.53625, -6.87594, 0.0 ], [ 107.53637, -6.875677, 0.0 ], [ 107.537666, -6.873898, 0.0 ], [ 107.538687, -6.87241, 0.0 ], [ 107.539106, -6.871794, 0.0 ], [ 107.539098, -6.871719, 0.0 ], [ 107.539049, -6.871218, 0.0 ], [ 107.53904, -6.871123, 0.0 ], [ 107.539214, -6.870923, 0.0 ], [ 107.54011, -6.87036, 0.0 ], [ 107.540601, -6.870045, 0.0 ], [ 107.541058, -6.86946, 0.0 ], [ 107.541159, -6.869255, 0.0 ], [ 107.540974, -6.869089, 0.0 ], [ 107.540834, -6.868975, 0.0 ], [ 107.540689, -6.869059, 0.0 ], [ 107.540583, -6.869146, 0.0 ], [ 107.540385, -6.869117, 0.0 ], [ 107.540184, -6.868904, 0.0 ], [ 107.540951, -6.868315, 0.0 ], [ 107.541427, -6.867949, 0.0 ], [ 107.542322, -6.86777, 0.0 ], [ 107.542755, -6.867774, 0.0 ], [ 107.542816, -6.867589, 0.0 ], [ 107.543964, -6.864082, 0.0 ], [ 107.544927, -6.864547, 0.0 ], [ 107.545339, -6.864724, 0.0 ], [ 107.5451, -6.865205, 0.0 ], [ 107.544983, -6.865378, 0.0 ], [ 107.545419, -6.865648, 0.0 ], [ 107.545146, -6.866139, 0.0 ], [ 107.546636, -6.866941, 0.0 ], [ 107.547029, -6.867451, 0.0 ] ] ] ] } },
{ "type": "Feature", "properties": { "NAMOBJ": "Sosial dan Budaya", "WADMPR": "Provinsi Jawa Barat", "WADMKK": "Kota Cimahi", "SDTPTG": 2, "REMARK": "Kawasan Wisata Air Ciseupan", "SBDATA": "Analisis RTRW Kota Cimahi Tahun 2023 - 2043", "SHAPE_Length": 0.019568016814483884, "SHAPE_Area": 2.182637508252953e-05 }, "geometry": { "type": "MultiPolygon", "coordinates": [ [ [ [ 107.513012, -6.894642, 0.0 ], [ 107.513016, -6.894622, 0.0 ], [ 107.513029, -6.894564, 0.0 ], [ 107.513062, -6.894488, 0.0 ], [ 107.513143, -6.894348, 0.0 ], [ 107.513209, -6.894225, 0.0 ], [ 107.513283, -6.894093, 0.0 ], [ 107.513328, -6.893983, 0.0 ], [ 107.513429, -6.893826, 0.0 ], [ 107.513539, -6.893675, 0.0 ], [ 107.513603, -6.893598, 0.0 ], [ 107.513705, -6.893481, 0.0 ], [ 107.513733, -6.893436, 0.0 ], [ 107.513771, -6.893352, 0.0 ], [ 107.513814, -6.893256, 0.0 ], [ 107.513853, -6.893171, 0.0 ], [ 107.513885, -6.893103, 0.0 ], [ 107.513914, -6.893054, 0.0 ], [ 107.513973, -6.892973, 0.0 ], [ 107.514024, -6.892905, 0.0 ], [ 107.514072, -6.892831, 0.0 ], [ 107.514144, -6.892715, 0.0 ], [ 107.514241, -6.892545, 0.0 ], [ 107.514334, -6.892366, 0.0 ], [ 107.514445, -6.892183, 0.0 ], [ 107.514538, -6.892011, 0.0 ], [ 107.514569, -6.891959, 0.0 ], [ 107.514611, -6.891926, 0.0 ], [ 107.514641, -6.891926, 0.0 ], [ 107.5147, -6.891938, 0.0 ], [ 107.51479, -6.891953, 0.0 ], [ 107.514982, -6.891988, 0.0 ], [ 107.515168, -6.892018, 0.0 ], [ 107.515388, -6.89206, 0.0 ], [ 107.515485, -6.892069, 0.0 ], [ 107.515611, -6.892095, 0.0 ], [ 107.515685, -6.892119, 0.0 ], [ 107.515725, -6.892142, 0.0 ], [ 107.515739, -6.89215, 0.0 ], [ 107.515747, -6.892155, 0.0 ], [ 107.515806, -6.892176, 0.0 ], [ 107.515873, -6.892198, 0.0 ], [ 107.515968, -6.892212, 0.0 ], [ 107.516047, -6.892224, 0.0 ], [ 107.516147, -6.892248, 0.0 ], [ 107.516247, -6.892262, 0.0 ], [ 107.516366, -6.892278, 0.0 ], [ 107.516486, -6.892299, 0.0 ], [ 107.516955, -6.892393, 0.0 ], [ 107.517015, -6.892391, 0.0 ], [ 107.517076, -6.892393, 0.0 ], [ 107.517167, -6.8924, 0.0 ], [ 107.517229, -6.892414, 0.0 ], [ 107.517314, -6.892441, 0.0 ], [ 107.517407, -6.892498, 0.0 ], [ 107.517512, -6.892552, 0.0 ], [ 107.5176, -6.892598, 0.0 ], [ 107.517688, -6.892638, 0.0 ], [ 107.517847, -6.892688, 0.0 ], [ 107.517957, -6.892705, 0.0 ], [ 107.518054, -6.892721, 0.0 ], [ 107.518157, -6.892726, 0.0 ], [ 107.518195, -6.892731, 0.0 ], [ 107.518236, -6.892731, 0.0 ], [ 107.518283, -6.892736, 0.0 ], [ 107.518293, -6.892765, 0.0 ], [ 107.518264, -6.89286, 0.0 ], [ 107.518212, -6.89295, 0.0 ], [ 107.518117, -6.893126, 0.0 ], [ 107.518045, -6.893269, 0.0 ], [ 107.517784, -6.893521, 0.0 ], [ 107.517693, -6.893678, 0.0 ], [ 107.517646, -6.893797, 0.0 ], [ 107.517636, -6.893902, 0.0 ], [ 107.517655, -6.893997, 0.0 ], [ 107.517698, -6.894107, 0.0 ], [ 107.517803, -6.89423, 0.0 ], [ 107.517917, -6.894345, 0.0 ], [ 107.518107, -6.894549, 0.0 ], [ 107.518397, -6.894716, 0.0 ], [ 107.518555, -6.89483, 0.0 ], [ 107.518553, -6.894851, 0.0 ], [ 107.518729, -6.894965, 0.0 ], [ 107.518877, -6.89507, 0.0 ], [ 107.518881, -6.895141, 0.0 ], [ 107.518872, -6.89527, 0.0 ], [ 107.518848, -6.895413, 0.0 ], [ 107.518781, -6.895551, 0.0 ], [ 107.518748, -6.895613, 0.0 ], [ 107.518648, -6.895665, 0.0 ], [ 107.518524, -6.895698, 0.0 ], [ 107.518382, -6.895741, 0.0 ], [ 107.518077, -6.895874, 0.0 ], [ 107.517906, -6.896003, 0.0 ], [ 107.517744, -6.896122, 0.0 ], [ 107.517587, -6.896245, 0.0 ], [ 107.517515, -6.896336, 0.0 ], [ 107.517439, -6.896412, 0.0 ], [ 107.517301, -6.896512, 0.0 ], [ 107.517235, -6.896545, 0.0 ], [ 107.517178, -6.896541, 0.0 ], [ 107.51714, -6.896493, 0.0 ], [ 107.517073, -6.89646, 0.0 ], [ 107.516997, -6.89645, 0.0 ], [ 107.516921, -6.89645, 0.0 ], [ 107.516835, -6.896483, 0.0 ], [ 107.516759, -6.896498, 0.0 ], [ 107.516702, -6.896488, 0.0 ], [ 107.516678, -6.896495, 0.0 ], [ 107.516644, -6.896488, 0.0 ], [ 107.516622, -6.89648, 0.0 ], [ 107.516582, -6.896454, 0.0 ], [ 107.516517, -6.896399, 0.0 ], [ 107.516434, -6.896349, 0.0 ], [ 107.516358, -6.896323, 0.0 ], [ 107.51631, -6.896328, 0.0 ], [ 107.516246, -6.896405, 0.0 ], [ 107.516201, -6.896521, 0.0 ], [ 107.516141, -6.896682, 0.0 ], [ 107.516094, -6.896902, 0.0 ], [ 107.516076, -6.896973, 0.0 ], [ 107.515981, -6.897006, 0.0 ], [ 107.515883, -6.897047, 0.0 ], [ 107.515811, -6.897086, 0.0 ], [ 107.515726, -6.897212, 0.0 ], [ 107.515687, -6.897246, 0.0 ], [ 107.51565, -6.897273, 0.0 ], [ 107.515607, -6.897298, 0.0 ], [ 107.515573, -6.897311, 0.0 ], [ 107.515545, -6.897317, 0.0 ], [ 107.515519, -6.897319, 0.0 ], [ 107.515483, -6.897316, 0.0 ], [ 107.515428, -6.897299, 0.0 ], [ 107.515358, -6.897272, 0.0 ], [ 107.515242, -6.89722, 0.0 ], [ 107.515176, -6.897195, 0.0 ], [ 107.515159, -6.897192, 0.0 ], [ 107.515138, -6.897188, 0.0 ], [ 107.515105, -6.89719, 0.0 ], [ 107.515039, -6.897201, 0.0 ], [ 107.51497, -6.897222, 0.0 ], [ 107.514898, -6.897232, 0.0 ], [ 107.514876, -6.89723, 0.0 ], [ 107.51485, -6.897223, 0.0 ], [ 107.514819, -6.897205, 0.0 ], [ 107.514757, -6.897155, 0.0 ], [ 107.514726, -6.897131, 0.0 ], [ 107.514677, -6.8971, 0.0 ], [ 107.514634, -6.897079, 0.0 ], [ 107.5146, -6.89707, 0.0 ], [ 107.514559, -6.897068, 0.0 ], [ 107.514505, -6.897071, 0.0 ], [ 107.514467, -6.897076, 0.0 ], [ 107.514436, -6.89708, 0.0 ], [ 107.514357, -6.897093, 0.0 ], [ 107.514329, -6.897094, 0.0 ], [ 107.514265, -6.897094, 0.0 ], [ 107.514192, -6.897093, 0.0 ], [ 107.514022, -6.897096, 0.0 ], [ 107.51391, -6.897098, 0.0 ], [ 107.513844, -6.897095, 0.0 ], [ 107.513802, -6.897088, 0.0 ], [ 107.513737, -6.897074, 0.0 ], [ 107.513686, -6.897066, 0.0 ], [ 107.513643, -6.897059, 0.0 ], [ 107.51355, -6.896916, 0.0 ], [ 107.513466, -6.896801, 0.0 ], [ 107.513468, -6.89668, 0.0 ], [ 107.513427, -6.89661, 0.0 ], [ 107.513385, -6.896548, 0.0 ], [ 107.513371, -6.89653, 0.0 ], [ 107.513324, -6.896478, 0.0 ], [ 107.513271, -6.896432, 0.0 ], [ 107.513147, -6.896333, 0.0 ], [ 107.513076, -6.896271, 0.0 ], [ 107.513032, -6.896223, 0.0 ], [ 107.513026, -6.896217, 0.0 ], [ 107.512973, -6.896148, 0.0 ], [ 107.512938, -6.89609, 0.0 ], [ 107.512907, -6.896036, 0.0 ], [ 107.512887, -6.895984, 0.0 ], [ 107.512877, -6.895941, 0.0 ], [ 107.512873, -6.895906, 0.0 ], [ 107.512864, -6.895834, 0.0 ], [ 107.51286, -6.895802, 0.0 ], [ 107.512852, -6.895774, 0.0 ], [ 107.512834, -6.895708, 0.0 ], [ 107.512833, -6.895673, 0.0 ], [ 107.512825, -6.895616, 0.0 ], [ 107.512825, -6.895614, 0.0 ], [ 107.512815, -6.895535, 0.0 ], [ 107.512798, -6.895432, 0.0 ], [ 107.512779, -6.89535, 0.0 ], [ 107.512769, -6.895288, 0.0 ], [ 107.512772, -6.895254, 0.0 ], [ 107.512771, -6.89522, 0.0 ], [ 107.512775, -6.895169, 0.0 ], [ 107.512791, -6.895117, 0.0 ], [ 107.512827, -6.895049, 0.0 ], [ 107.512867, -6.894969, 0.0 ], [ 107.512908, -6.894897, 0.0 ], [ 107.512954, -6.894807, 0.0 ], [ 107.512979, -6.894731, 0.0 ], [ 107.513012, -6.894642, 0.0 ] ] ] ] } },
{ "type": "Feature", "properties": { "NAMOBJ": "Sosial dan Budaya", "WADMPR": "Provinsi Jawa Barat", "WADMKK": "Kota Cimahi", "SDTPTG": 2, "REMARK": "Kawasan Wisata Budaya Cireundeu", "SBDATA": "Analisis RTRW Kota Cimahi Perda No 4 Tahun 2012 - 2032", "SHAPE_Length": 0.0099146608997186698, "SHAPE_Area": 5.8527922736173417e-06 }, "geometry": { "type": "MultiPolygon", "coordinates": [ [ [ [ 107.521164, -6.911886, 0.0 ], [ 107.521505, -6.912004, 0.0 ], [ 107.521847, -6.912187, 0.0 ], [ 107.52198, -6.91236, 0.0 ], [ 107.522041, -6.912659, 0.0 ], [ 107.522097, -6.912975, 0.0 ], [ 107.522458, -6.913368, 0.0 ], [ 107.522855, -6.913784, 0.0 ], [ 107.523001, -6.914315, 0.0 ], [ 107.522955, -6.914716, 0.0 ], [ 107.522845, -6.915267, 0.0 ], [ 107.522564, -6.91543, 0.0 ], [ 107.522176, -6.915497, 0.0 ], [ 107.521464, -6.915525, 0.0 ], [ 107.521039, -6.915342, 0.0 ], [ 107.520935, -6.915044, 0.0 ], [ 107.520863, -6.913896, 0.0 ], [ 107.520895, -6.913137, 0.0 ], [ 107.520731, -6.91269, 0.0 ], [ 107.520693, -6.9122, 0.0 ], [ 107.520841, -6.911966, 0.0 ], [ 107.521164, -6.911886, 0.0 ] ] ] ] } }
]
}
